{"type":"FeatureCollection","features":[{"type":"Feature","geometry":{"type":"LineString","coordinates":[[12096623.88940225,1615750.14569237],[12096634.34055897,1615751.25293478],[12096634.41433072,1615753.49202462]]},"properties":{"color":"#fffc78","landType":"CHN","OGR_STYLE":"PEN(c:#FFFC78,w:2px)","Layer":"CHN","stroke":"#fffc78","fill":"#fffc78"},"id":"7a2e3981-b0e8-441e-8a46-ff555a9ccedc"},{"type":"Feature","geometry":{"type":"LineString","coordinates":[[12096623.87095791,1615750.15025585],[12096634.32211463,1615751.25684892],[12096634.41433072,1615753.50077374]]},"properties":{"id":"bedd4aed-43fd-47f2-bb56-725f5ce722cc","name":"Đường bedd","landType":"DGT","color":"#ffaa32","strokeColor":"#ffaa32","stroke":"#ffaa32","fill":"#ffaa32","Layer":"DGT","OGR_STYLE":"PEN(c:#FFAA32,w:2px)"}},{"type":"Feature","geometry":{"type":"LineString","coordinates":[[12096624.14577465,1615747.55476442],[12096636.83740268,1615748.89858386],[12096637.02212953,1615753.39360393]]},"properties":{"id":"4f0f607c-75f4-4c53-bdb0-4c2fc5bf824a","name":"Đường 4f0f","landType":"DGT","color":"#ffaa32","strokeColor":"#ffaa32","stroke":"#ffaa32","fill":"#ffaa32","Layer":"DGT","OGR_STYLE":"PEN(c:#FFAA32,w:2px)"}},{"type":"Feature","geometry":{"type":"LineString","coordinates":[[12096628.20081294,1615755.71361876],[12096635.83769169,1615757.45490213],[12096639.79129887,1615755.20644881],[12096632.08683557,1615754.71618459],[12096628.23460393,1615753.32991993],[12096626.03815635,1615754.91905174],[12096627.49119064,1615757.42109067]]},"properties":{"color":"#c8c8c8","OGR_STYLE":"PEN(c:#C8C8C8,w:2px)","Layer":"BAN_VE","stroke":"#c8c8c8","fill":"#c8c8c8"},"id":"9534638d-10ef-4028-906b-652816c809b3"}]}