{"type":"FeatureCollection","features":[{"type":"Feature","geometry":{"type":"LineString","coordinates":[[12096629.69788664,1615756.1835454],[12096638.54335859,1615756.47123398]]},"properties":{"color":"#c8c8c8","OGR_STYLE":"PEN(c:#C8C8C8,w:2px)","Layer":"BAN_VE","stroke":"#c8c8c8","fill":"#c8c8c8"},"id":"bc66e6fa-c8e7-448d-9aec-5ba00b3d077f"},{"type":"Feature","geometry":{"type":"LineString","coordinates":[[12096629.68097395,1615756.18534422],[12096638.53912881,1615756.48132075]]},"properties":{"landType":"DGT","color":"#ffaa32","strokeColor":"#ffaa32","stroke":"#ffaa32","fill":"#ffaa32","Layer":"DGT","OGR_STYLE":"PEN(c:#FFAA32,w:2px)"}},{"type":"Feature","geometry":{"type":"LineString","coordinates":[[12096629.76813295,1615753.57679993],[12096638.62628781,1615753.87277646]]},"properties":{"landType":"DGT","color":"#ffaa32","strokeColor":"#ffaa32","stroke":"#ffaa32","fill":"#ffaa32","Layer":"DGT","OGR_STYLE":"PEN(c:#FFAA32,w:2px)"}}]}