{"type":"FeatureCollection","features":[{"type":"Feature","geometry":{"type":"LineString","coordinates":[[12099609.10520245,1606135.94764083,760.95047169],[12099622.56765985,1606137.19046028,759.54263402],[12099623.11999975,1606111.94803998,761.15231082],[12099617.80563938,1606111.16687095,759.8710791],[12099599.12369706,1606108.36168928,759.52991061],[12099601.93359157,1606135.46618294,760.70304263]]},"properties":{"name":"Nhóm 17","color":"#2563eb"},"id":"683e617f-67b5-47ff-872b-40a0905ab612"},{"type":"Feature","geometry":{"type":"LineString","coordinates":[[12099605.32835847,1606172.59053724,759.88865897],[12099579.61301149,1606169.85007454,760.02317272],[12099564.04637938,1606162.19248875,759.65996825],[12099567.74205809,1606133.17074581,759.52349907],[12099609.10520245,1606135.94764083,760.95047169],[12099605.32835847,1606172.59053724,759.88865897],[12099605.32835847,1606172.59053724,759.88865897],[12099605.32835847,1606172.59053724,759.88865897]]},"properties":{"name":"Nhóm 2","color":"#2563eb"},"id":"6e722cbf-d282-4b2c-8014-eccda025ab6e"},{"type":"Feature","geometry":{"type":"LineString","coordinates":[[12099598.78064677,1606049.51759274,763.38181609],[12099593.27507392,1606045.8305139,763.45235536],[12099592.93394184,1606044.44176373,763.23760643],[12099599.05400429,1606038.8966696,764.54645837],[12099603.10129458,1606042.27275139,764.54058555],[12099600.72046587,1606047.37170415,764.08260822],[12099599.75857966,1606048.76308596,763.56696018],[12099598.78064677,1606049.51759274,763.38181609]]},"properties":{"name":"Nhóm 25","color":"#2563eb"},"id":"4c3bf532-23fb-4d69-b4c0-62e2bf096242"},{"type":"Feature","geometry":{"type":"LineString","coordinates":[[12099627.64406704,1606056.95052928,762.48814651],[12099629.96744602,1606055.76260026,762.81895646],[12099659.96883556,1606051.01651004,763.85997862],[12099662.2487402,1606059.61892025,763.44746751],[12099652.02800482,1606065.35254135,761.22381959],[12099646.60422226,1606062.82153602,763.07076279],[12099636.02987592,1606070.88444152,760.42532786]]},"properties":{"name":"Nhóm 22","color":"#2563eb"},"id":"294d63fe-41fe-4828-acc1-af0bf9af2040"},{"type":"Feature","geometry":{"type":"LineString","coordinates":[[12099600.83266813,1606079.23055759,759.96853604],[12099609.75841002,1606070.12312663,760.80054664],[12099615.91057833,1606065.70755079,760.9734933],[12099618.45994374,1606069.08013205,761.05054697],[12099620.46183905,1606071.11632773,760.85924918],[12099623.16210519,1606072.36533201,761.04971796],[12099628.27057337,1606076.48888442,761.24478527],[12099621.26456803,1606085.64160879,760.17259341]]},"properties":{"name":"Nhóm 20","color":"#2563eb"},"id":"1ae2b36a-0a09-4944-88aa-f7edcfd22127"},{"type":"Feature","geometry":{"type":"LineString","coordinates":[[12099615.91057833,1606065.70755079,760.9734933],[12099627.64406704,1606056.95052928,762.48814651],[12099632.18807381,1606062.66418574,763.99042163],[12099636.02987592,1606070.88444152,760.42532786],[12099628.27057337,1606076.48888442,761.24478527]]},"properties":{"name":"Nhóm 21","color":"#2563eb"},"id":"fd7c0d06-61e8-4186-8751-1923eccbef25"},{"type":"Feature","geometry":{"type":"LineString","coordinates":[[12099592.19450705,1606084.62981708,760.18342669],[12099610.5759601,1606060.34029358,761.19320737],[12099610.3892061,1606057.16704487,762.81788844],[12099598.59028676,1606053.32023168,763.07264965],[12099589.3858629,1606060.66092551,761.11962926],[12099582.44316444,1606074.61323483,759.77727164],[12099584.94944614,1606078.97386171,759.7457316],[12099592.19450705,1606084.62981708,760.18342669]]},"properties":{"name":"Nhóm 23","color":"#2563eb"},"id":"2fddf34a-0e0a-429e-a060-e3a5c603da89"},{"type":"Feature","geometry":{"type":"LineString","coordinates":[[12099582.44316444,1606074.61323483,759.77727164],[12099574.27085884,1606057.14700157,760.08293434],[12099589.86665461,1606049.3461044,762.35820743],[12099591.12690495,1606047.90413398,762.78806509],[12099596.88618873,1606054.67928096,762.71106766]]},"properties":{"name":"Nhóm 24","color":"#2563eb"},"id":"357414eb-1b05-4319-95c4-944a43447139"},{"type":"Feature","geometry":{"type":"LineString","coordinates":[[12099594.87616862,1606090.10044905,759.80502399],[12099600.83266813,1606079.23055759,759.96853604],[12099618.54069758,1606085.19019835,760.07473845],[12099618.77392961,1606084.59666126,760.12298276],[12099621.26456803,1606085.64160879,760.17259341],[12099623.35417092,1606088.46190655,760.25814998],[12099624.74253217,1606088.42560639,760.3805186],[12099627.93162127,1606090.91830396,760.45076214],[12099631.61934942,1606094.72794678,760.19217454],[12099629.55954944,1606099.02126662,761.18668967],[12099622.82594282,1606096.49689233,760.7352644]]},"properties":{"name":"Nhóm 19","color":"#2563eb"},"id":"e7226363-2478-4bd4-999b-2a08fa1e54b9"},{"type":"Feature","geometry":{"type":"LineString","coordinates":[[12099599.12369706,1606108.36168928,759.52991061],[12099594.25421275,1606094.88103426,759.68630148],[12099594.87616862,1606090.10044905,759.80502399],[12099617.77567806,1606094.00042985,759.99425485],[12099622.82594282,1606096.49689233,760.7352644],[12099620.86735877,1606102.05598156,760.03808277],[12099620.167281,1606107.75760723,760.10476931],[12099617.80563938,1606111.16687095,759.8710791]]},"properties":{"name":"Nhóm 18","color":"#2563eb"},"id":"daa13ce1-d694-47fb-b6aa-3b67691c8b47"},{"type":"Feature","geometry":{"type":"LineString","coordinates":[[12099638.65026295,1606041.28522595,767.28125572],[12099659.73914804,1606043.14222092,766.44633814],[12099661.63516561,1606022.70938693,773.78157342],[12099650.1501693,1606021.81315855,772.88557943],[12099639.77330288,1606018.48763005,771.79908796],[12099625.82467749,1606029.91457648,768.07367828]]},"properties":{"name":"Nhóm 29","color":"#2563eb"},"id":"e7ddfb54-1864-43a0-bcd3-8ea05d991545"},{"type":"Feature","geometry":{"type":"LineString","coordinates":[[12099567.42725248,1606040.70085619,759.97444493],[12099561.69656924,1606024.47150799,760.380541],[12099563.42061057,1606022.36275945,760.99026434],[12099565.69407026,1606021.64685046,760.99720016],[12099573.7119644,1606021.27649786,761.11815419],[12099580.97653107,1606024.31187734,762.21803396],[12099585.85508556,1606028.46966258,763.04649226],[12099586.65526317,1606035.81231228,762.61180807]]},"properties":{"name":"Nhóm 27","color":"#2563eb"},"id":"b6384791-8faf-415c-bca6-d0d8796606ee"},{"type":"Feature","geometry":{"type":"LineString","coordinates":[[12099573.4921291,1606016.34582355,761.01136973],[12099561.54833834,1606016.92949954,760.45013659],[12099557.57870316,1606014.86560712,760.35910437],[12099552.07810709,1605998.68475945,760.80191176],[12099568.4400003,1605994.43106428,760.83864512],[12099569.03618547,1605996.83814673,760.86589593]]},"properties":{"name":"Nhóm 33","color":"#2563eb"},"id":"617006cc-a69e-4b9c-9791-1ee6d379c097"},{"type":"Feature","geometry":{"type":"LineString","coordinates":[[12099589.04797175,1606024.05418318,762.41012633],[12099600.77330183,1606034.12304791,765.48430032],[12099604.83449671,1606035.37053115,765.14033969],[12099608.9978568,1606035.28594094,765.87131223],[12099641.21222053,1606011.179611,772.58497656],[12099626.90710013,1605987.60710083,775.35019774],[12099617.06321366,1605993.81940974,772.49005855]]},"properties":{"name":"Nhóm 39","color":"#2563eb"},"id":"69332f65-5a13-43fa-81d2-895799ed6a7f"},{"type":"Feature","geometry":{"type":"LineString","coordinates":[[12099581.56942899,1606019.97150613,761.76173768],[12099578.8427807,1606018.32709689,761.24559388],[12099578.58541991,1606016.66914066,761.2024463],[12099588.88081179,1606011.82848908,762.95313749],[12099596.27159429,1606011.16872163,765.90828596],[12099597.78715018,1606015.50780375,765.75939767],[12099596.58046825,1606020.89648182,765.12904065],[12099589.04797175,1606024.05418318,762.41012633],[12099581.56942899,1606019.97150613,761.76173768]]},"properties":{"name":"Nhóm 31","color":"#2563eb"},"id":"bcd4f7b7-4c80-448c-ad3d-3f87fe34940d"},{"type":"Feature","geometry":{"type":"LineString","coordinates":[[12099610.3892061,1606057.16704487,762.81788844],[12099619.7596493,1606055.78101841,763.234762],[12099633.84139171,1606042.50567799,766.09926882],[12099638.65026295,1606041.28522595,767.28125572],[12099642.1298116,1606037.55288784,767.66901051],[12099625.82467749,1606029.91457648,768.07367829],[12099611.48539025,1606040.71364905,765.31337304],[12099605.64041304,1606041.50739619,764.84509086],[12099606.14568725,1606048.42347479,763.95404021],[12099610.3892061,1606057.16704487,762.81788844]]},"properties":{"name":"Nhóm 28","color":"#2563eb"},"id":"aae5b54e-be8b-46de-8b0a-483203cf573c"},{"type":"Feature","geometry":{"type":"LineString","coordinates":[[12099639.77330288,1606018.48763005,771.79908796],[12099653.10531348,1606011.38083,774.0537024],[12099661.63516561,1606022.70938693,773.78157342]]},"properties":{"name":"Nhóm 30","color":"#2563eb"},"id":"d731eca1-c825-4abc-8878-5135d15c5152"},{"type":"Feature","geometry":{"type":"LineString","coordinates":[[12099574.27085884,1606057.14700157,760.08293434],[12099567.42725248,1606040.70085619,759.97444493],[12099573.96342516,1606038.79989754,760.43104408],[12099586.65526317,1606035.81231228,762.61180807],[12099590.12607706,1606038.22859036,763.80143478],[12099591.12690495,1606047.90413398,762.78806508]]},"properties":{"name":"Nhóm 26","color":"#2563eb"},"id":"ecab9bb6-2162-4e8c-b22f-0e044c58fe60"},{"type":"Feature","geometry":{"type":"LineString","coordinates":[[12099519.8485142,1606122.5742025,760.26374912],[12099512.57610507,1606110.04307717,761.29986015],[12099488.27345011,1606124.63327556,765.7063052],[12099490.27182019,1606127.82091012,762.30495579],[12099495.95900935,1606128.81000404,762.38514935],[12099500.82487332,1606127.06454449,761.32020472]]},"properties":{"name":"Nhóm 7","color":"#2563eb"},"id":"1a01c917-f1ae-4df1-b8f6-63ebbe0efaad"},{"type":"Feature","geometry":{"type":"LineString","coordinates":[[12099519.8485142,1606122.5742025,760.26374912],[12099524.76771662,1606132.01705935,759.63355247],[12099503.936986,1606137.67446255,760.7255714],[12099500.82487332,1606127.06454449,761.32020472],[12099519.8485142,1606122.5742025,760.26374912]]},"properties":{"name":"Nhóm 7","color":"#2563eb"},"id":"3d72d360-a4af-4a46-944e-1dd1fa8a43c8"},{"type":"Feature","geometry":{"type":"LineString","coordinates":[[12099519.8485142,1606122.5742025,760.26374912],[12099524.76771662,1606132.01705935,759.63355247],[12099503.936986,1606137.67446255,760.7255714],[12099500.82487332,1606127.06454449,761.32020472],[12099519.8485142,1606122.5742025,760.26374912]]},"properties":{"name":"Nhóm 7","color":"#2563eb"},"id":"49efd56a-91ae-4833-9134-8e57d4cbc90a"},{"type":"Feature","geometry":{"type":"LineString","coordinates":[[12099520.90802456,1606185.99801344,762.48973852],[12099526.96314791,1606179.94370888,761.79332027],[12099535.23418149,1606149.96845447,760.33140795],[12099515.13074266,1606149.16533484,762.16122551],[12099506.74859446,1606155.54276476,763.08165594],[12099498.45916361,1606177.2043941,762.77609585]]},"properties":{"name":"Nhóm 6","color":"#2563eb"},"id":"fefc47fd-5f37-4642-87ba-06682cb210bb"},{"type":"Feature","geometry":{"type":"LineString","coordinates":[[12099520.90802456,1606185.99801344,762.48973852],[12099526.96314791,1606179.94370888,761.79332027],[12099535.23418149,1606149.96845447,760.33140795],[12099515.13074266,1606149.16533484,762.16122551],[12099506.74859446,1606155.54276476,763.08165594],[12099498.45916361,1606177.2043941,762.77609585]]},"properties":{"name":"Nhóm 6","color":"#2563eb"},"id":"a3454b27-c867-4ac7-86c1-d20d83c47a29"},{"type":"Feature","geometry":{"type":"LineString","coordinates":[[12099517.13287784,1606195.40254055,768.03107972],[12099520.90802456,1606185.99801344,762.48973852],[12099490.57670308,1606174.11668831,762.87666474]]},"properties":{"name":"Nhóm 5","color":"#2563eb"},"id":"d8b553ff-9b07-4876-8219-4280b545ed4b"},{"type":"Feature","geometry":{"type":"LineString","coordinates":[[12099517.13287784,1606195.40254055,768.03107972],[12099520.90802456,1606185.99801344,762.48973852],[12099490.57670308,1606174.11668831,762.87666474]]},"properties":{"name":"Nhóm 5","color":"#2563eb"},"id":"8f0207fe-7693-4637-8de0-d4a80eb77342"},{"type":"Feature","geometry":{"type":"LineString","coordinates":[[12099536.3970963,1606199.88740536,761.98948594],[12099546.42354168,1606204.44919754,762.5212958],[12099564.55852975,1606210.15564926,760.10992388],[12099580.90531447,1606209.03147563,760.54239431],[12099588.64247819,1606188.93199191,758.9229225],[12099548.43126792,1606173.51445481,759.62212381],[12099536.3970963,1606199.88740536,761.98948594]]},"properties":{"name":"Nhóm 2","color":"#2563eb"},"id":"d974fc29-88d0-4d68-89e4-c58cda40fbc4"},{"type":"Feature","geometry":{"type":"LineString","coordinates":[[12099502.66479232,1606067.7511628,761.74758103],[12099514.67214682,1606062.03162962,760.08441705],[12099506.54223935,1606046.92315172,761.04543805],[12099494.21641276,1606053.0050133,762.21200729],[12099502.66479232,1606067.7511628,761.74758104]]},"properties":{"name":"Nhóm 47","color":"#2563eb"},"id":"3140d833-54ac-477f-8115-ed96892cfca7"},{"type":"Feature","geometry":{"type":"LineString","coordinates":[[12099522.93542775,1606067.83144253,760.04504774],[12099516.11961988,1606055.05092899,759.87098028],[12099522.71784289,1606052.62083593,759.89072059],[12099535.24332053,1606049.61052019,759.92978999],[12099538.04941145,1606058.47760082,760.38097857]]},"properties":{"name":"Nhóm 9","color":"#2563eb"},"id":"ef1ba93c-ea38-4966-984f-4c714c314fa4"},{"type":"Feature","geometry":{"type":"LineString","coordinates":[[12099568.27896065,1606061.19056061,761.28382475],[12099564.59006716,1606049.65429149,760.17756987],[12099539.9074679,1606057.62396245,760.02153742],[12099538.04941145,1606058.47760082,760.38097857],[12099533.52049797,1606060.76515058,760.21639424],[12099534.04361451,1606063.13962209,760.04312031],[12099525.35101986,1606066.32825113,760.07681199],[12099522.93542775,1606067.83144253,760.04504774],[12099527.45093738,1606076.49501781,760.07377283],[12099533.66738618,1606073.38032653,761.30106045]]},"properties":{"name":"Nhóm 5","color":"#2563eb"},"id":"b8960a91-de86-4664-a0e2-cb22f8e19cb8"},{"type":"Feature","geometry":{"type":"LineString","coordinates":[[12099539.80816769,1606086.1063773,759.60169034],[12099533.66738618,1606073.38032653,761.30106045],[12099546.83709889,1606068.08642464,760.04246089],[12099554.03516352,1606066.74700369,760.29642278],[12099553.72849694,1606065.89669592,760.48173711],[12099568.27896065,1606061.19056061,761.28382475],[12099573.78396402,1606072.35179014,759.94183865]]},"properties":{"name":"Nhóm 4","color":"#2563eb"},"id":"8eae99fd-bf7b-4894-95c5-e1beceb54117"},{"type":"Feature","geometry":{"type":"LineString","coordinates":[[12099546.6361308,1606111.12931663,759.75916895],[12099534.75012693,1606089.23192901,759.50944605],[12099537.08206139,1606087.20999793,759.57440654],[12099539.80816769,1606086.1063773,759.60169034],[12099573.78396402,1606072.35179014,759.94183865],[12099582.09502838,1606088.0787978,761.29432749]]},"properties":{"name":"Nhóm 8","color":"#2563eb"},"id":"3d4d7d86-4f7a-428e-8fd7-cc3b51d2c2c4"},{"type":"Feature","geometry":{"type":"LineString","coordinates":[[12099553.31598068,1606123.18953245,759.22313344],[12099591.02361912,1606125.1224722,759.31867023],[12099594.89612394,1606123.42687277,760.12031004],[12099594.78952581,1606114.87862069,759.50997413],[12099587.42715979,1606095.2135826,759.87738103],[12099570.68761869,1606109.14462992,759.5337364],[12099563.53725129,1606113.72281473,760.0421181],[12099561.9405654,1606111.57937597,759.41835416],[12099553.40831125,1606117.48377413,759.28880282],[12099554.19958788,1606119.0532396,759.34096903],[12099551.76146623,1606120.3829162,759.34787546],[12099553.31598068,1606123.18953245,759.22313344]]},"properties":{"name":"Nhóm 6","color":"#2563eb"},"id":"75105321-0b52-49f8-a686-173ee3cfcc22"},{"type":"Feature","geometry":{"type":"LineString","coordinates":[[12099551.76146623,1606120.3829162,759.34787546],[12099546.6361308,1606111.12931663,759.75916895],[12099550.60390195,1606108.77965021,759.49185051],[12099563.01897035,1606100.52359494,759.51787253],[12099568.18756281,1606096.68151053,759.61651906],[12099567.2289251,1606094.82769598,759.55121525],[12099570.60596129,1606092.32550828,759.5170567],[12099582.09502838,1606088.0787978,761.29432749],[12099587.42715979,1606095.2135826,759.87738103]]},"properties":{"name":"Nhóm 7","color":"#2563eb"},"id":"69c6975e-13ab-4e63-bcb7-5e18961c043a"},{"type":"Feature","geometry":{"type":"LineString","coordinates":[[12099519.8485142,1606122.5742025,760.26374912],[12099512.57610507,1606110.04307717,761.29986015],[12099488.27345011,1606124.63327556,765.7063052],[12099490.27182019,1606127.82091012,762.30495579],[12099495.95900935,1606128.81000404,762.38514935],[12099500.82487332,1606127.06454449,761.32020472]]},"properties":{"name":"Nhóm 7","color":"#2563eb"},"id":"1eae4913-1f00-4845-8fcd-112e23a7afe6"},{"type":"Feature","geometry":{"type":"LineString","coordinates":[[12099557.18383589,1606027.78248065,760.70603476],[12099554.1647746,1606018.21577168,760.36422091],[12099532.50574954,1606022.6073984,760.476299],[12099532.10097658,1606037.4381576,761.03262422]]},"properties":{"name":"Nhóm 12","color":"#2563eb"},"id":"a130759e-78d8-416d-8203-b2e0d106f0c3"},{"type":"Feature","geometry":{"type":"LineString","coordinates":[[12099553.24291949,1606018.40268923,760.36898973],[12099549.46356027,1606006.79963231,760.70388047],[12099508.5191253,1606007.83349536,760.22503138],[12099505.19038386,1606018.57645485,0],[12099501.56565523,1606030.27466376,760.7386249],[12099506.47072354,1606029.00018467,760.40048572]]},"properties":{"name":"Nhóm 14","color":"#2563eb"},"id":"5c0f6976-4ce6-4982-af4c-b324b7866639"},{"type":"Feature","geometry":{"type":"LineString","coordinates":[[12099532.50574954,1606022.6073984,760.476299],[12099520.67897203,1606025.17297907,760.37391774],[12099506.47072354,1606029.00018467,760.40048572],[12099509.18555543,1606039.0000293,760.00725717]]},"properties":{"name":"Nhóm 13","color":"#2563eb"},"id":"3d43dbd5-c3bc-49d3-a5f2-713d0e371944"},{"type":"Feature","geometry":{"type":"LineString","coordinates":[[12099494.21641276,1606053.0050133,762.21200728],[12099488.89515468,1606041.39594004,763.29474891],[12099502.04907705,1606035.62344496,760.65617429],[12099506.54223935,1606046.92315172,761.04543805]]},"properties":{"name":"Nhóm 48","color":"#2563eb"},"id":"80832a30-3527-4bc1-aae4-25f98d6874c3"},{"type":"Feature","geometry":{"type":"LineString","coordinates":[[12099560.47007564,1606038.35894206,760.31676638],[12099557.18383589,1606027.78248065,760.70603476],[12099547.4501042,1606032.07537766,760.39570662],[12099541.71964845,1606035.67521768,760.54873031],[12099537.87160516,1606037.28483037,760.4761335],[12099537.48441714,1606036.15079157,760.72872554],[12099532.10097658,1606037.4381576,761.03262422],[12099534.63469699,1606047.06702071,759.91018374]]},"properties":{"name":"Nhóm 10","color":"#2563eb"},"id":"139c629e-699e-4839-85fb-7a70a2492e8d"},{"type":"Feature","geometry":{"type":"LineString","coordinates":[[12099532.10097658,1606037.4381576,761.03262422],[12099509.18555543,1606039.0000293,760.00725717],[12099516.11961988,1606055.05092899,759.87098028]]},"properties":{"name":"Nhóm 11","color":"#2563eb"},"id":"a1741acf-5730-44e8-9491-db76c6a18227"},{"type":"Feature","geometry":{"type":"LineString","coordinates":[[12099552.07810709,1605998.68475945,760.80191176],[12099547.60518352,1605988.1010562,760.92135886],[12099566.15704386,1605985.20977831,760.81239012],[12099568.4400003,1605994.43106428,760.83864512]]},"properties":{"name":"Nhóm 34","color":"#2563eb"},"id":"1b34fe11-ac3b-49fc-9a56-cbd553330bbf"},{"type":"Feature","geometry":{"type":"LineString","coordinates":[[12099564.59006716,1606049.65429149,760.17756986],[12099560.47007564,1606038.35894206,760.31676638],[12099534.63469699,1606047.06702071,759.91018374],[12099535.24332053,1606049.61052019,759.92978999]]},"properties":{"name":"Nhóm 10","color":"#2563eb"},"id":"1c2b6718-a59b-49f7-b988-25414e0f6f66"},{"type":"Feature","geometry":{"type":"LineString","coordinates":[[12099463.66189388,1606088.87358808,763.00113436],[12099463.03167352,1606087.72336772,763.33713194],[12099449.16110356,1606093.32555265,763.64540421],[12099440.03940886,1606093.5794835,763.83689204],[12099440.58670878,1606102.94003635,762.60590784],[12099450.54089522,1606102.04874675,762.76677253],[12099459.2695731,1606098.04906167,762.86028271],[12099467.38790247,1606094.41899503,762.96121577]]},"properties":{"name":"Nhóm 80","color":"#2563eb"},"id":"449ffaf1-451d-45f4-8015-a0fd869d5b20"},{"type":"Feature","geometry":{"type":"LineString","coordinates":[[12099512.57610507,1606110.04307717,761.29986015],[12099501.66141082,1606092.22159106,762.2244513],[12099471.66798559,1606109.84742816,762.19616945],[12099480.65208935,1606127.41434592,761.64035749],[12099488.27345011,1606124.63327555,765.70630519]]},"properties":{"name":"Nhóm 8","color":"#2563eb"},"id":"0794a67b-639d-4143-9767-91b3ee4c8f8a"},{"type":"Feature","geometry":{"type":"LineString","coordinates":[[12099512.57610507,1606110.04307717,761.29986015],[12099501.66141082,1606092.22159106,762.2244513],[12099471.66798559,1606109.84742816,762.19616945],[12099480.65208935,1606127.41434592,761.64035749],[12099488.27345011,1606124.63327555,765.70630519]]},"properties":{"name":"Nhóm 8","color":"#2563eb"},"id":"85f9bff4-9a79-40e1-a0df-16f3e47f70e1"},{"type":"Feature","geometry":{"type":"LineString","coordinates":[[12099512.50786999,1606203.41680169,764.75511008],[12099513.6420919,1606204.04033053,764.7571297],[12099517.13287784,1606195.40254055,768.03107972],[12099504.66950914,1606189.64510208,762.90342588],[12099505.55648954,1606187.87006644,763.13322335],[12099501.45495192,1606185.39955639,762.75974906],[12099501.49231724,1606185.13984604,762.70100126],[12099490.57670308,1606174.11668831,762.87666474],[12099465.89475455,1606166.10245462,762.3332547],[12099460.07916779,1606178.0345776,765.97163006],[12099464.41852059,1606180.409383,765.60995242]]},"properties":{"name":"Nhóm 4","color":"#2563eb"},"id":"25a9bb34-828e-407a-8115-fbd7a06bc769"},{"type":"Feature","geometry":{"type":"LineString","coordinates":[[12099512.50786999,1606203.41680169,764.75511008],[12099513.6420919,1606204.04033053,764.7571297],[12099517.13287784,1606195.40254055,768.03107972],[12099504.66950914,1606189.64510208,762.90342588],[12099505.55648954,1606187.87006644,763.13322335],[12099501.45495192,1606185.39955639,762.75974906],[12099501.49231724,1606185.13984604,762.70100126],[12099490.57670308,1606174.11668831,762.87666474],[12099465.89475455,1606166.10245462,762.3332547],[12099460.07916779,1606178.0345776,765.97163006],[12099464.41852059,1606180.409383,765.60995242]]},"properties":{"name":"Nhóm 4","color":"#2563eb"},"id":"cbb6aec6-2740-4329-8992-8315a136d3e1"},{"type":"Feature","geometry":{"type":"LineString","coordinates":[[12099418.74860782,1606119.18891433,760.21041842],[12099461.44048289,1606105.19192871,762.31402915],[12099474.22774991,1606123.38113936,761.43015229],[12099457.67678744,1606138.61443616,760.49941891],[12099418.74860782,1606119.18891433,760.21041842]]},"properties":{"name":"Nhóm 79","color":"#2563eb"},"id":"fae5bf0c-1422-4e2f-a6c4-f63276a25e2a"},{"type":"Feature","geometry":{"type":"LineString","coordinates":[[12099509.53388618,1606209.96166758,764.03755423],[12099512.50786999,1606203.41680169,764.75511008],[12099464.41852059,1606180.409383,765.60995242],[12099460.65175704,1606187.69844568,766.89320679],[12099464.06280619,1606192.69603307,768.47792616],[12099467.31811594,1606195.29697188,768.47117442],[12099476.35799522,1606196.85194785,767.15906865],[12099480.81376074,1606199.52100289,766.94729712],[12099484.43317076,1606199.83525806,766.35276202],[12099493.0510528,1606207.52972227,766.51868692],[12099507.74931503,1606213.46469573,765.16430523],[12099509.53388618,1606209.96166758,764.03755423]]},"properties":{"name":"Nhóm 3","color":"#2563eb"},"id":"a0dd9e6c-d441-4c0d-be07-5a28e4dbb1cb"},{"type":"Feature","geometry":{"type":"LineString","coordinates":[[12099509.53388618,1606209.96166758,764.03755423],[12099512.50786999,1606203.41680169,764.75511008],[12099464.41852059,1606180.409383,765.60995242],[12099460.65175704,1606187.69844568,766.89320679],[12099464.06280619,1606192.69603307,768.47792616],[12099467.31811594,1606195.29697188,768.47117442],[12099476.35799522,1606196.85194785,767.15906865],[12099480.81376074,1606199.52100289,766.94729712],[12099484.43317076,1606199.83525806,766.35276202],[12099493.0510528,1606207.52972227,766.51868692],[12099507.74931503,1606213.46469573,765.16430523],[12099509.53388618,1606209.96166758,764.03755423]]},"properties":{"name":"Nhóm 3","color":"#2563eb"},"id":"74ee0e45-f4fa-4782-9395-e133ef891674"},{"type":"Feature","geometry":{"type":"LineString","coordinates":[[12099484.35134304,1606065.44039386,763.8736243],[12099485.89275923,1606064.53452294,762.91897136],[12099478.38817324,1606044.46852987,764.05497257],[12099455.17425202,1606056.18893767,765.15909559],[12099465.35572286,1606073.40692013,765.56383282]]},"properties":{"name":"Nhóm 12","color":"#2563eb"},"id":"d347a289-8189-4a48-95c1-d7bccb63e779"},{"type":"Feature","geometry":{"type":"LineString","coordinates":[[12099484.35134304,1606065.44039386,763.8736243],[12099485.89275923,1606064.53452294,762.91897136],[12099478.38817324,1606044.46852987,764.05497257],[12099455.17425202,1606056.18893767,765.15909559],[12099465.35572286,1606073.40692013,765.56383282]]},"properties":{"name":"Nhóm 12","color":"#2563eb"},"id":"28cf696c-4d0f-4882-9847-987f8f3468e9"},{"type":"Feature","geometry":{"type":"LineString","coordinates":[[12099489.25363863,1606074.25655539,762.62789347],[12099484.35134304,1606065.44039386,763.8736243],[12099482.50896206,1606066.42033086,762.93491294],[12099481.85293052,1606065.07652937,762.96507108],[12099465.35572286,1606073.40692013,765.56383282],[12099470.60051874,1606084.91051242,762.89992592]]},"properties":{"name":"Nhóm 11","color":"#2563eb"},"id":"434555dd-18d9-4437-b283-d001a51861b3"},{"type":"Feature","geometry":{"type":"LineString","coordinates":[[12099495.43442394,1606085.65566073,762.89825329],[12099489.25363863,1606074.25655539,762.62789347],[12099463.66189388,1606088.87358808,763.00113436],[12099471.72556877,1606100.87472806,762.91475246]]},"properties":{"name":"Nhóm 10","color":"#2563eb"},"id":"037a94ab-3fb2-4aef-b742-c0a454bb52ae"},{"type":"Feature","geometry":{"type":"LineString","coordinates":[[12099489.25363863,1606074.25655539,762.62789347],[12099484.35134304,1606065.44039386,763.8736243],[12099482.50896206,1606066.42033086,762.93491294],[12099481.85293052,1606065.07652937,762.96507108],[12099465.35572286,1606073.40692013,765.56383282],[12099470.60051874,1606084.91051242,762.89992592]]},"properties":{"name":"Nhóm 11","color":"#2563eb"},"id":"679cb158-f763-4b04-a703-7013727aecf9"},{"type":"Feature","geometry":{"type":"LineString","coordinates":[[12099495.43442394,1606085.65566073,762.89825329],[12099489.25363863,1606074.25655539,762.62789347],[12099463.66189388,1606088.87358808,763.00113436],[12099471.72556877,1606100.87472806,762.91475246]]},"properties":{"name":"Nhóm 10","color":"#2563eb"},"id":"2d4e44b3-f3a8-4226-8de6-5607c2b64fa9"},{"type":"Feature","geometry":{"type":"LineString","coordinates":[[12099500.28854266,1606093.02836725,762.22315289],[12099495.43442394,1606085.65566073,762.89825329],[12099469.0463104,1606102.59458198,762.91662431],[12099472.74202014,1606109.21626539,762.19717912]]},"properties":{"name":"Nhóm 9","color":"#2563eb"},"id":"389fc1e1-227d-4da4-80e1-09895d159bc1"},{"type":"Feature","geometry":{"type":"LineString","coordinates":[[12099500.28854266,1606093.02836725,762.22315289],[12099495.43442394,1606085.65566073,762.89825329],[12099469.0463104,1606102.59458198,762.91662431],[12099472.74202014,1606109.21626539,762.19717912]]},"properties":{"name":"Nhóm 9","color":"#2563eb"},"id":"8680f179-171d-4e1c-bd08-1310b8533f48"},{"type":"Feature","geometry":{"type":"LineString","coordinates":[[12099463.72739452,1606009.19777726,765.48581713],[12099461.40197668,1605996.77600233,764.90780297],[12099435.31989447,1606000.25971352,768.86823359],[12099442.16886357,1606017.04277517,766.62163533]]},"properties":{"name":"Nhóm 16","color":"#2563eb"},"id":"dadcf646-9180-4af5-a98c-385bbd0f358e"},{"type":"Feature","geometry":{"type":"LineString","coordinates":[[12099465.09843248,1606017.05184295,764.9610309],[12099463.63480751,1606009.46317166,764.65462993],[12099442.16886357,1606017.04277517,766.62163533],[12099443.18994271,1606024.85512213,768.16553918]]},"properties":{"name":"Nhóm 15","color":"#2563eb"},"id":"8fb9d6c6-598a-4610-b835-944e96e341e8"},{"type":"Feature","geometry":{"type":"LineString","coordinates":[[12099465.09843248,1606017.05184295,764.9610309],[12099463.63480751,1606009.46317166,764.65462993],[12099442.16886357,1606017.04277517,766.62163533],[12099443.18994271,1606024.85512213,768.16553918]]},"properties":{"name":"Nhóm 15","color":"#2563eb"},"id":"cf9a30b1-68c3-4926-b250-d5793369c4e7"},{"type":"Feature","geometry":{"type":"LineString","coordinates":[[12099463.72739452,1606009.19777726,765.48581713],[12099461.40197668,1605996.77600233,764.90780297],[12099435.31989447,1606000.25971352,768.86823359],[12099442.16886357,1606017.04277517,766.62163533]]},"properties":{"name":"Nhóm 16","color":"#2563eb"},"id":"6e6ed128-52f0-45ac-ac55-3c174ae184d3"},{"type":"Feature","geometry":{"type":"LineString","coordinates":[[12099473.65888908,1606029.68848356,764.12933328],[12099468.86927724,1606015.70875626,764.4094856],[12099443.18994271,1606024.85512213,768.16553919],[12099448.64960176,1606039.36249975,765.93110513]]},"properties":{"name":"Nhóm 14","color":"#2563eb"},"id":"0c9037ba-4688-47a6-81b3-2af7db1e68d1"},{"type":"Feature","geometry":{"type":"LineString","coordinates":[[12099478.38817324,1606044.46852987,764.05497257],[12099473.65888908,1606029.68848356,764.12933328],[12099448.64960176,1606039.36249975,765.93110513],[12099450.46676282,1606048.72909817,765.79835811],[12099444.76625132,1606056.82467221,767.03416341],[12099449.29551144,1606064.85088376,766.84357922],[12099456.7592053,1606066.11874514,766.16607623],[12099460.38001825,1606064.99246056,765.36602968]]},"properties":{"name":"Nhóm 13","color":"#2563eb"},"id":"e64ed807-55a1-4560-8821-5a8b276f44c1"},{"type":"Feature","geometry":{"type":"LineString","coordinates":[[12099473.65888908,1606029.68848356,764.12933328],[12099468.86927724,1606015.70875626,764.4094856],[12099443.18994271,1606024.85512213,768.16553919],[12099448.64960176,1606039.36249975,765.93110513]]},"properties":{"name":"Nhóm 14","color":"#2563eb"},"id":"1acb13e0-802a-4ea7-a14b-868f19504180"},{"type":"Feature","geometry":{"type":"LineString","coordinates":[[12099478.38817324,1606044.46852987,764.05497257],[12099473.65888908,1606029.68848356,764.12933328],[12099448.64960176,1606039.36249975,765.93110513],[12099450.46676282,1606048.72909817,765.79835811],[12099444.76625132,1606056.82467221,767.03416341],[12099449.29551144,1606064.85088376,766.84357922],[12099456.7592053,1606066.11874514,766.16607623],[12099460.38001825,1606064.99246056,765.36602968]]},"properties":{"name":"Nhóm 13","color":"#2563eb"},"id":"80057dc5-7b63-450d-a51f-37f1084aeda4"},{"type":"Feature","geometry":{"type":"LineString","coordinates":[[12099578.8427807,1606018.32709689,761.24559388],[12099573.4921291,1606016.34582355,761.01136973],[12099569.03618547,1605996.83814673,760.86589593],[12099587.75169567,1605991.89228029,763.43896588],[12099583.85942835,1605979.79943249,763.48079112],[12099604.8056428,1605974.07016158,772.91153708],[12099617.61114759,1605994.70223368,772.47121963],[12099588.88081179,1606011.82848907,762.95313749]]},"properties":{"name":"Nhóm 33","color":"#2563eb"},"id":"144636ab-a020-4914-bd60-e4b461369c0c"},{"type":"Feature","geometry":{"type":"LineString","coordinates":[[12099566.15704386,1605985.20977831,760.81239012],[12099584.06021483,1605980.42325422,763.47863294]]},"properties":{"name":"Nhóm 35","color":"#2563eb"},"id":"e8f77d8e-1579-44e1-9818-6184884e8e21"},{"type":"Feature","geometry":{"type":"LineString","coordinates":[[12099539.67823288,1605848.69012712,761.14713215],[12099541.01385554,1605829.12588711,761.08956202],[12099553.11363862,1605830.47579606,761.34160441],[12099562.17373543,1605832.20328456,762.03390587],[12099564.48502101,1605835.35114602,763.83044598],[12099563.80145945,1605846.91894679,763.02990851],[12099565.64787701,1605851.36362527,763.17784441]]},"properties":{"name":"Nhóm 42","color":"#2563eb"},"id":"3f3287b7-010f-4d02-9809-420392813f6d"},{"type":"Feature","geometry":{"type":"LineString","coordinates":[[12099538.78002587,1605867.75370662,761.05929759],[12099539.67823288,1605848.69012712,761.14713215],[12099565.64787701,1605851.36362527,763.17784441],[12099564.09232698,1605868.8971536,763.34102158]]},"properties":{"name":"Nhóm 41","color":"#2563eb"},"id":"4bfff816-6a1c-4945-ac88-34bb275f049e"},{"type":"Feature","geometry":{"type":"LineString","coordinates":[[12099538.0370824,1605882.32266369,761.18080323],[12099548.67566195,1605882.03154063,761.88607485],[12099553.730407,1605870.18720178,761.82029603],[12099538.78002587,1605867.75370662,761.05929759],[12099538.0370824,1605882.32266369,761.18080323]]},"properties":{"name":"Nhóm 43","color":"#2563eb"},"id":"77b9a713-f59e-4e8d-b69a-a5f17fe8be33"},{"type":"Feature","geometry":{"type":"LineString","coordinates":[[12099604.8056428,1605974.07016158,772.91153708],[12099604.69027055,1605959.95905021,774.0768386],[12099602.04730023,1605950.73742124,772.52823905],[12099568.16892195,1605961.0709369,761.03745339],[12099566.68812265,1605962.26189723,760.84460447],[12099563.2685553,1605967.09442915,760.94675543],[12099563.19146158,1605969.41432856,761.03204542],[12099567.06286195,1605984.96760252,760.94728845]]},"properties":{"name":"Nhóm 36","color":"#2563eb"},"id":"68dd0b24-1c87-4bd0-abaf-1877122da0e7"},{"type":"Feature","geometry":{"type":"LineString","coordinates":[[12099553.730407,1605870.18720178,761.82029603],[12099554.69777243,1605867.77281687,761.76752344],[12099564.09232698,1605868.8971536,763.34102158],[12099561.85008707,1605881.85433728,765.80675239],[12099552.82865173,1605880.72496428,762.29172311],[12099549.99448049,1605878.94126995,761.86891036]]},"properties":{"name":"Nhóm 44","color":"#2563eb"},"id":"2aa448b4-14e1-43af-affe-f67b82bd07e4"},{"type":"Feature","geometry":{"type":"LineString","coordinates":[[12099543.11021458,1605968.90984695,760.55273816],[12099543.65964188,1605955.08202566,760.48568472],[12099542.60577772,1605945.5526193,760.87814641],[12099556.05501984,1605945.50297295,0],[12099565.62337484,1605945.46765244,761.50781812],[12099569.23775806,1605951.88497685,761.61003375],[12099570.67942554,1605960.30518975,761.8889518]]},"properties":{"name":"Nhóm 38","color":"#2563eb"},"id":"bf4a2e1f-1911-4fab-85c9-7bd655df52c9"},{"type":"Feature","geometry":{"type":"LineString","coordinates":[[12099540.80445877,1605981.09203565,760.9697066],[12099538.17087543,1605958.5533786,760.95055841],[12099534.75171589,1605958.1106536,760.53242398],[12099524.28754264,1605980.46894456,760.95155024]]},"properties":{"name":"Nhóm 16","color":"#2563eb"},"id":"2329f976-62a4-463c-a93e-ca7093f0785a"},{"type":"Feature","geometry":{"type":"LineString","coordinates":[[12099547.60518352,1605988.1010562,760.92135886],[12099543.11021458,1605968.90984695,760.55273816],[12099563.22557124,1605968.38790291,760.99430928]]},"properties":{"name":"Nhóm 37","color":"#2563eb"},"id":"5ffa485f-064c-460f-a1da-d0930d0d1896"},{"type":"Feature","geometry":{"type":"LineString","coordinates":[[12099554.60930793,1605615.43462519],[12099577.45557074,1605622.4509547]]},"properties":{"color":"#c8c8c8"},"id":"78aac152-f3ae-4ed6-ad22-5f2f4ec78986"},{"type":"Feature","geometry":{"type":"LineString","coordinates":[[12099511.63118329,1605606.38128956],[12099541.48967161,1605611.92645505]]},"properties":{"color":"#c8c8c8"},"id":"139201d7-b9c0-45cc-9873-4c4930fb9dac"},{"type":"Feature","geometry":{"type":"LineString","coordinates":[[12099508.80367509,1605594.60911705],[12099555.74031122,1605596.53511575],[12099523.2805119,1605599.48075992],[12099548.95429153,1605603.67263733],[12099571.34815993,1605599.25417108],[12099561.96082926,1605608.20439585]]},"properties":{"color":"#c8c8c8"},"id":"44b3742c-16d8-446b-9103-d0af32189919"},{"type":"Feature","geometry":{"type":"LineString","coordinates":[[12099547.97719672,1605802.69708206,761.27328266],[12099551.55993173,1605791.08865739,761.39734814],[12099554.05875857,1605787.00995918,761.70819258],[12099566.32415089,1605790.96786135,761.62033704],[12099563.06720154,1605805.97081557,762.44052785]]},"properties":{"name":"Nhóm 46","color":"#2563eb"},"id":"54f69ad4-0e02-4356-b354-029ea514bd9a"},{"type":"Feature","geometry":{"type":"LineString","coordinates":[[12099541.01385554,1605829.12588711,761.08956202],[12099542.84239554,1605822.14511802,0],[12099544.60860175,1605815.40231901,761.10492443],[12099568.801673,1605819.1388519,763.73288057],[12099564.48502101,1605835.35114602,763.83044598]]},"properties":{"name":"Nhóm 44","color":"#2563eb"},"id":"8fe6a065-ad13-425f-801c-9e4282f93296"},{"type":"Feature","geometry":{"type":"LineString","coordinates":[[12099571.99475026,1605808.09661602],[12099592.38330737,1605814.70388909],[12099590.4623033,1605829.11979399],[12099568.801673,1605819.1388519]]},"properties":{"color":"#ff5046","landType":"CAN"},"id":"a4f9d01f-9d14-4065-8dd9-5d8afd36d99f"},{"type":"Feature","geometry":{"type":"LineString","coordinates":[[12099568.801673,1605819.1388519],[12099564.48502101,1605835.35114602],[12099581.44673749,1605839.79478301],[12099590.4623033,1605829.11979399]]},"properties":{"color":"#ff5046","landType":"CAN"},"id":"e9032cf8-b124-4a7d-a54b-b4514079be3c"},{"type":"Feature","geometry":{"type":"LineString","coordinates":[[12099544.60860175,1605815.40231901,761.10492443],[12099547.97719672,1605802.69708206,761.27328266],[12099563.06720154,1605805.97081557,762.44052785],[12099571.99475026,1605808.09661602,765.27185344],[12099575.15933488,1605811.10752103,767.02405681],[12099575.61960282,1605817.297895,766.34563728],[12099568.801673,1605819.1388519,763.73288057]]},"properties":{"name":"Nhóm 45","color":"#2563eb"},"id":"deeb26ab-8a67-4b2b-9b4f-4f1d95c8921f"},{"type":"Feature","geometry":{"type":"LineString","coordinates":[[12099477.92768861,1605858.44057264,766.80546883],[12099478.06192396,1605848.29407944,767.13518801],[12099518.48149562,1605851.65324579,766.70964786],[12099518.21875396,1605860.45552765,766.7052919]]},"properties":{"name":"Nhóm 32","color":"#2563eb"},"id":"5bd864e4-e7a9-42a2-8648-54bf18d1f55c"},{"type":"Feature","geometry":{"type":"LineString","coordinates":[[12099477.01260788,1605868.69250914,766.80542416],[12099477.92768861,1605858.44057264,766.80546883],[12099518.21875396,1605860.45552765,766.7052919],[12099517.54865246,1605869.22601078,766.64373759]]},"properties":{"name":"Nhóm 31","color":"#2563eb"},"id":"cde9c62f-9bee-47ce-b692-77fc8e6bb7d2"},{"type":"Feature","geometry":{"type":"LineString","coordinates":[[12099477.01260788,1605868.69250914,766.80542416],[12099477.92768861,1605858.44057264,766.80546883],[12099518.21875396,1605860.45552765,766.7052919],[12099517.54865246,1605869.22601078,766.64373759]]},"properties":{"name":"Nhóm 31","color":"#2563eb"},"id":"84930167-7b11-43c7-ae33-a6c54c774443"},{"type":"Feature","geometry":{"type":"LineString","coordinates":[[12099476.86575292,1605878.57302684,766.46666084],[12099477.01260788,1605868.69250914,766.80542416],[12099517.54865246,1605869.22601078,766.64373759],[12099516.99393012,1605877.89668833,766.6980751]]},"properties":{"name":"Nhóm 30","color":"#2563eb"},"id":"ed56ef8a-08c7-42b5-a8e8-a46f27b7fd90"},{"type":"Feature","geometry":{"type":"LineString","coordinates":[[12099476.86575292,1605878.57302684,766.46666084],[12099477.01260788,1605868.69250914,766.80542416],[12099517.54865246,1605869.22601078,766.64373759],[12099516.99393012,1605877.89668833,766.6980751]]},"properties":{"name":"Nhóm 30","color":"#2563eb"},"id":"72ac1e0a-6bc5-43af-848e-800e0d41aa33"},{"type":"Feature","geometry":{"type":"LineString","coordinates":[[12099476.45782315,1605888.04878008,766.39920318],[12099476.86575292,1605878.57302684,766.46666084],[12099516.99393012,1605877.89668833,766.6980751],[12099516.20313287,1605886.16470744,766.65778922]]},"properties":{"name":"Nhóm 29","color":"#2563eb"},"id":"4d77c8b5-6eba-4b06-80f8-4e1a6026da36"},{"type":"Feature","geometry":{"type":"LineString","coordinates":[[12099476.45782315,1605888.04878008,766.39920318],[12099476.86575292,1605878.57302684,766.46666084],[12099516.99393012,1605877.89668833,766.6980751],[12099516.20313287,1605886.16470744,766.65778922]]},"properties":{"name":"Nhóm 29","color":"#2563eb"},"id":"34f70e72-4ff9-4334-a817-53ea22e185ce"},{"type":"Feature","geometry":{"type":"LineString","coordinates":[[12099549.46356027,1606006.79963231,760.70388047],[12099545.25991431,1605993.79018792,760.83702793],[12099543.17930832,1605991.29260739,760.83376554],[12099540.80445877,1605981.09203565,760.9697066],[12099524.28754264,1605980.46894456,760.95155024],[12099508.5191253,1606007.83349536,760.22503138]]},"properties":{"name":"Nhóm 15","color":"#2563eb"},"id":"a793a4a8-65ae-472f-82a4-597eec9fba56"},{"type":"Feature","geometry":{"type":"LineString","coordinates":[[12099482.9614532,1605813.35560807,767.25150349],[12099486.91230028,1605796.8960344,767.40677384],[12099525.62383372,1605807.56075207,767.27684717],[12099522.39866096,1605818.43724186,767.446779]]},"properties":{"name":"Nhóm 36","color":"#2563eb"},"id":"d8a1c10e-d48b-4cd3-b7da-659922f727e9"},{"type":"Feature","geometry":{"type":"LineString","coordinates":[[12099480.44484534,1605825.80616632,767.66668019],[12099482.9614532,1605813.35560807,767.25150349],[12099522.39866096,1605818.43724186,767.446779],[12099520.03298332,1605830.13378603,767.21194607]]},"properties":{"name":"Nhóm 35","color":"#2563eb"},"id":"6a40536e-2076-4a5c-8f8a-4d71732885a6"},{"type":"Feature","geometry":{"type":"LineString","coordinates":[[12099480.44484534,1605825.80616632,767.66668019],[12099482.9614532,1605813.35560807,767.25150349],[12099522.39866096,1605818.43724186,767.446779],[12099520.03298332,1605830.13378603,767.21194607]]},"properties":{"name":"Nhóm 35","color":"#2563eb"},"id":"19771c02-790e-49aa-b5ab-428d29e458a9"},{"type":"Feature","geometry":{"type":"LineString","coordinates":[[12099479.46028969,1605837.68460659,767.07953865],[12099480.44484534,1605825.80616632,767.66668019],[12099520.03298332,1605830.13378603,767.21194607],[12099519.40292115,1605842.67674171,766.79853978]]},"properties":{"name":"Nhóm 34","color":"#2563eb"},"id":"a1d8ec60-b680-4d5c-8e9a-2e2c04cce5e4"},{"type":"Feature","geometry":{"type":"LineString","coordinates":[[12099479.46028969,1605837.68460659,767.07953865],[12099480.44484534,1605825.80616632,767.66668019],[12099520.03298332,1605830.13378603,767.21194607],[12099519.40292115,1605842.67674171,766.79853978]]},"properties":{"name":"Nhóm 34","color":"#2563eb"},"id":"f60efad6-6c4a-4f18-8657-2f5c05853d57"},{"type":"Feature","geometry":{"type":"LineString","coordinates":[[12099478.06192396,1605848.29407944,767.13518801],[12099479.46028969,1605837.68460659,767.07953865],[12099519.40292115,1605842.67674171,766.79853978],[12099518.48149562,1605851.65324579,766.70964786]]},"properties":{"name":"Nhóm 33","color":"#2563eb"},"id":"995af7a1-d985-4097-b437-8ddb981e04a4"},{"type":"Feature","geometry":{"type":"LineString","coordinates":[[12099478.06192396,1605848.29407944,767.13518801],[12099479.46028969,1605837.68460659,767.07953865],[12099519.40292115,1605842.67674171,766.79853978],[12099518.48149562,1605851.65324579,766.70964786]]},"properties":{"name":"Nhóm 33","color":"#2563eb"},"id":"3c8c413c-b7c0-4c46-934c-6a6eb3876eb6"},{"type":"Feature","geometry":{"type":"LineString","coordinates":[[12099477.92768861,1605858.44057264,766.80546883],[12099478.06192396,1605848.29407944,767.13518801],[12099518.48149562,1605851.65324579,766.70964786],[12099518.21875396,1605860.45552765,766.7052919]]},"properties":{"name":"Nhóm 32","color":"#2563eb"},"id":"12ffd1f7-c50a-425e-8b0e-c4a753435311"},{"type":"Feature","geometry":{"type":"LineString","coordinates":[[12099482.9614532,1605813.35560807,767.25150349],[12099486.91230028,1605796.8960344,767.40677384],[12099525.62383372,1605807.56075207,767.27684717],[12099522.39866096,1605818.43724186,767.446779]]},"properties":{"name":"Nhóm 36","color":"#2563eb"},"id":"1f428799-6720-4622-885e-bcee59182cb8"},{"type":"Feature","geometry":{"type":"LineString","coordinates":[[12099492.43423419,1605774.9721718,767.61377338],[12099494.94048369,1605765.03318381,767.75195893],[12099534.99589258,1605770.82304295,769.89453285],[12099533.58541277,1605780.50009533,767.94280738],[12099530.95459845,1605780.54443846,767.65580602]]},"properties":{"name":"Nhóm 39","color":"#2563eb"},"id":"ee784282-262e-4efb-b647-f150e2e57174"},{"type":"Feature","geometry":{"type":"LineString","coordinates":[[12099489.14052725,1605787.33405262,767.4605338],[12099492.43423419,1605774.9721718,767.61377338],[12099530.95459845,1605780.54443846,767.65580602],[12099528.17700022,1605795.46364852,768.65939499]]},"properties":{"name":"Nhóm 38","color":"#2563eb"},"id":"96fdfeae-30b5-4684-8f60-40921bf4a39b"},{"type":"Feature","geometry":{"type":"LineString","coordinates":[[12099518.64340017,1605612.83178775],[12099522.71501026,1605610.56845384],[12099507.44646597,1605607.28662226]]},"properties":{"color":"#c8c8c8"},"id":"e20dbd43-19a5-4e25-b7ae-9e94499adc1e"},{"type":"Feature","geometry":{"type":"LineString","coordinates":[[12099492.43423419,1605774.9721718,767.61377338],[12099494.94048369,1605765.03318381,767.75195893],[12099534.99589258,1605770.82304295,769.89453285],[12099533.58541277,1605780.50009533,767.94280738],[12099530.95459845,1605780.54443846,767.65580602]]},"properties":{"name":"Nhóm 39","color":"#2563eb"},"id":"a320bc7e-9653-4f60-a925-c7b11396ebab"},{"type":"Feature","geometry":{"type":"LineString","coordinates":[[12099489.14052725,1605787.33405262,767.4605338],[12099492.43423419,1605774.9721718,767.61377338],[12099530.95459845,1605780.54443846,767.65580602],[12099528.17700022,1605795.46364852,768.65939499]]},"properties":{"name":"Nhóm 38","color":"#2563eb"},"id":"d07a75ba-1b23-4b25-a617-c0b1b1a6b7af"},{"type":"Feature","geometry":{"type":"LineString","coordinates":[[12099486.91230028,1605796.8960344,767.40677384],[12099489.14052725,1605787.33405262,767.4605338],[12099528.17700022,1605795.46364852,768.65939499],[12099525.62383372,1605807.56075207,767.27684717]]},"properties":{"name":"Nhóm 37","color":"#2563eb"},"id":"663389b4-14fe-4995-9a27-1084375c2ff8"},{"type":"Feature","geometry":{"type":"LineString","coordinates":[[12099486.91230028,1605796.8960344,767.40677384],[12099489.14052725,1605787.33405262,767.4605338],[12099528.17700022,1605795.46364852,768.65939499],[12099525.62383372,1605807.56075207,767.27684717]]},"properties":{"name":"Nhóm 37","color":"#2563eb"},"id":"213b58dc-5ac1-4859-a721-1845ec8af050"},{"type":"Feature","geometry":{"type":"LineString","coordinates":[[12099460.74215193,1605943.0326957,765.4484586],[12099459.09937706,1605917.73351288,766.04582396],[12099425.73174959,1605919.15111839,767.95243432],[12099426.31010267,1605949.06951035,768.22163964]]},"properties":{"name":"Nhóm 20","color":"#2563eb"},"id":"c14b6c88-2b57-4126-b742-85147c685465"},{"type":"Feature","geometry":{"type":"LineString","coordinates":[[12099460.74215193,1605943.0326957,765.4484586],[12099459.09937706,1605917.73351288,766.04582396],[12099425.73174959,1605919.15111839,767.95243432],[12099426.31010267,1605949.06951035,768.22163964]]},"properties":{"name":"Nhóm 20","color":"#2563eb"},"id":"ee87cb01-15cf-4ec1-9b97-9d77c1759609"},{"type":"Feature","geometry":{"type":"LineString","coordinates":[[12099461.40197668,1605996.77600233,764.90780297],[12099461.43626936,1605972.85592192,765.05813048],[12099430.89570993,1605977.51695997,767.82540812],[12099435.31989447,1606000.25971352,768.86823359]]},"properties":{"name":"Nhóm 17","color":"#2563eb"},"id":"48276fa0-b755-4a7d-8e8d-a37b774428b0"},{"type":"Feature","geometry":{"type":"LineString","coordinates":[[12099461.40197668,1605996.77600233,764.90780297],[12099461.43626936,1605972.85592192,765.05813048],[12099430.89570993,1605977.51695997,767.82540812],[12099435.31989447,1606000.25971352,768.86823359]]},"properties":{"name":"Nhóm 17","color":"#2563eb"},"id":"88b49f41-02ac-4788-9a93-bf03ca164ade"},{"type":"Feature","geometry":{"type":"LineString","coordinates":[[12099462.02646559,1605959.86783756,765.03225195],[12099460.74215193,1605943.0326957,765.4484586],[12099426.31010267,1605949.06951035,768.22163964],[12099426.73236767,1605963.02627461,769.85006017]]},"properties":{"name":"Nhóm 19","color":"#2563eb"},"id":"a13fd2d2-4ac0-4198-a97c-804d9f73432f"},{"type":"Feature","geometry":{"type":"LineString","coordinates":[[12099462.02646559,1605959.86783756,765.03225195],[12099460.74215193,1605943.0326957,765.4484586],[12099426.31010267,1605949.06951035,768.22163964],[12099426.73236767,1605963.02627461,769.85006017]]},"properties":{"name":"Nhóm 19","color":"#2563eb"},"id":"07872e67-107b-474f-a39a-e515a5c19e26"},{"type":"Feature","geometry":{"type":"LineString","coordinates":[[12099461.43626936,1605972.85592192,765.05813048],[12099462.02646559,1605959.86783756,765.03225195],[12099426.73236767,1605963.02627461,769.85006017],[12099430.89570993,1605977.51695997,767.82540812]]},"properties":{"name":"Nhóm 18","color":"#2563eb"},"id":"0d5796fe-9509-4879-821b-52d3ad944f4e"},{"type":"Feature","geometry":{"type":"LineString","coordinates":[[12099461.43626936,1605972.85592192,765.05813048],[12099462.02646559,1605959.86783756,765.03225195],[12099426.73236767,1605963.02627461,769.85006017],[12099430.89570993,1605977.51695997,767.82540812]]},"properties":{"name":"Nhóm 18","color":"#2563eb"},"id":"7828f624-c993-4766-bdec-8e93e4668c08"},{"type":"Feature","geometry":{"type":"LineString","coordinates":[[12099459.07519744,1605891.20246136,767.02325086],[12099459.08982901,1605877.53078605,767.17623668],[12099425.21463814,1605875.51280271,769.23045312],[12099421.56791478,1605888.82434104,773.54734169]]},"properties":{"name":"Nhóm 22","color":"#2563eb"},"id":"550b90a8-f865-480e-b5dd-2da2f00e05de"},{"type":"Feature","geometry":{"type":"LineString","coordinates":[[12099459.07519744,1605891.20246136,767.02325086],[12099459.08982901,1605877.53078605,767.17623668],[12099425.21463814,1605875.51280271,769.23045312],[12099421.56791478,1605888.82434104,773.54734169]]},"properties":{"name":"Nhóm 22","color":"#2563eb"},"id":"0aefa702-e093-42d8-9289-f2e5cf65e489"},{"type":"Feature","geometry":{"type":"LineString","coordinates":[[12099475.09344983,1605897.85311014,766.79138468],[12099476.45782315,1605888.04878008,766.39920318],[12099516.20313287,1605886.16470744,766.65778922],[12099516.52878853,1605896.20631816,766.53295576]]},"properties":{"name":"Nhóm 28","color":"#2563eb"},"id":"6047eb9e-84a8-4885-acf6-889319408534"},{"type":"Feature","geometry":{"type":"LineString","coordinates":[[12099475.09344983,1605897.85311014,766.79138468],[12099476.45782315,1605888.04878008,766.39920318],[12099516.20313287,1605886.16470744,766.65778922],[12099516.52878853,1605896.20631816,766.53295576]]},"properties":{"name":"Nhóm 28","color":"#2563eb"},"id":"2a5f00d4-7518-4fff-8830-a250dac14b33"},{"type":"Feature","geometry":{"type":"LineString","coordinates":[[12099459.09937706,1605917.73351288,766.04582396],[12099459.07519744,1605891.20246136,767.02325086],[12099421.56791478,1605888.82434104,773.54734169],[12099425.73174959,1605919.15111839,767.95243431]]},"properties":{"name":"Nhóm 21","color":"#2563eb"},"id":"f5ce502e-bc1a-4fc4-ab0a-f2bf559b8e64"},{"type":"Feature","geometry":{"type":"LineString","coordinates":[[12099459.09937706,1605917.73351288,766.04582396],[12099459.07519744,1605891.20246136,767.02325086],[12099421.56791478,1605888.82434104,773.54734169],[12099425.73174959,1605919.15111839,767.95243431]]},"properties":{"name":"Nhóm 21","color":"#2563eb"},"id":"c1b7c2f7-b6a7-4753-a70f-253de86bdb54"},{"type":"Feature","geometry":{"type":"LineString","coordinates":[[12099476.03432782,1605908.21548001,766.3929672],[12099475.09344983,1605897.85311014,766.79138468],[12099516.52878853,1605896.20631816,766.53295577],[12099514.77478795,1605906.21547695,767.20680628],[12099476.03432782,1605908.21548001,766.3929672]]},"properties":{"name":"Nhóm 27","color":"#2563eb"},"id":"23f0c9b4-0068-45b5-aadd-34dee13ff563"},{"type":"Feature","geometry":{"type":"LineString","coordinates":[[12099476.03432782,1605908.21548001,766.3929672],[12099475.09344983,1605897.85311014,766.79138468],[12099516.52878853,1605896.20631816,766.53295577],[12099514.77478795,1605906.21547695,767.20680628],[12099476.03432782,1605908.21548001,766.3929672]]},"properties":{"name":"Nhóm 27","color":"#2563eb"},"id":"2cebdcb5-403e-4a50-9fbb-7520cd653c2a"},{"type":"Feature","geometry":{"type":"LineString","coordinates":[[12099459.73127926,1605839.34515711,767.52159631],[12099460.79039236,1605829.63379608,767.88315825],[12099429.99069767,1605827.01890726,770.389566],[12099428.13789907,1605838.32007038,769.69135657]]},"properties":{"name":"Nhóm 26","color":"#2563eb"},"id":"eb15445a-afa2-4afa-80e2-5cd417e63427"},{"type":"Feature","geometry":{"type":"LineString","coordinates":[[12099459.73127926,1605839.34515711,767.52159631],[12099460.79039236,1605829.63379608,767.88315825],[12099429.99069767,1605827.01890726,770.389566],[12099428.13789907,1605838.32007038,769.69135657]]},"properties":{"name":"Nhóm 26","color":"#2563eb"},"id":"b82c523e-19d6-4c85-968f-5abdf6425175"},{"type":"Feature","geometry":{"type":"LineString","coordinates":[[12099458.44105772,1605856.72435516,767.2905634],[12099459.73127926,1605839.34515711,767.52159631],[12099428.13789907,1605838.32007038,769.69135657],[12099426.13291355,1605852.33273687,770.04451792]]},"properties":{"name":"Nhóm 25","color":"#2563eb"},"id":"8191cfdb-4529-4a37-9351-c40df901752b"},{"type":"Feature","geometry":{"type":"LineString","coordinates":[[12099458.44105772,1605856.72435516,767.2905634],[12099459.73127926,1605839.34515711,767.52159631],[12099428.13789907,1605838.32007038,769.69135657],[12099426.13291355,1605852.33273687,770.04451792]]},"properties":{"name":"Nhóm 25","color":"#2563eb"},"id":"282de6b0-6b64-41c4-90dc-6f7ac21c35c2"},{"type":"Feature","geometry":{"type":"LineString","coordinates":[[12099459.08982901,1605877.53078605,767.17623668],[12099459.22353037,1605868.32555436,766.59607652],[12099455.06325775,1605867.08168451,766.97480541],[12099437.54487643,1605864.9161132,767.62067876],[12099437.12940948,1605866.1262656,767.66135717],[12099433.29407023,1605865.71070239,767.80593997],[12099433.13806009,1605868.89347436,768.06744902],[12099425.14365366,1605869.62988911,770.10980651],[12099425.21463814,1605875.51280271,769.23045312]]},"properties":{"name":"Nhóm 23","color":"#2563eb"},"id":"00e312ad-8942-4c7b-a305-36f843407aee"},{"type":"Feature","geometry":{"type":"LineString","coordinates":[[12099459.22353037,1605868.32555436,766.59607652],[12099458.44105772,1605856.72435516,767.2905634],[12099426.13291355,1605852.33273687,770.04451792],[12099425.14365366,1605869.62988911,770.10980651]]},"properties":{"name":"Nhóm 24","color":"#2563eb"},"id":"e463aaf9-4289-46e1-846f-393bcff3c4de"},{"type":"Feature","geometry":{"type":"LineString","coordinates":[[12099459.22353037,1605868.32555436,766.59607652],[12099458.44105772,1605856.72435516,767.2905634],[12099426.13291355,1605852.33273687,770.04451792],[12099425.14365366,1605869.62988911,770.10980651]]},"properties":{"name":"Nhóm 24","color":"#2563eb"},"id":"e270b02a-ed59-41d3-9932-f4243e3d043f"},{"type":"Feature","geometry":{"type":"LineString","coordinates":[[12099459.08982901,1605877.53078605,767.17623668],[12099459.22353037,1605868.32555436,766.59607652],[12099455.06325775,1605867.08168451,766.97480541],[12099437.54487643,1605864.9161132,767.62067876],[12099437.12940948,1605866.1262656,767.66135717],[12099433.29407023,1605865.71070239,767.80593997],[12099433.13806009,1605868.89347436,768.06744902],[12099425.14365366,1605869.62988911,770.10980651],[12099425.21463814,1605875.51280271,769.23045312]]},"properties":{"name":"Nhóm 23","color":"#2563eb"},"id":"4eea1b47-d399-427d-98cf-fd8e320b7677"}]}