{"type":"FeatureCollection","features":[{"type":"Feature","geometry":{"type":"LineString","coordinates":[[12096399.37213995,1614960.79357672],[12096394.84605565,1614959.28444549],[12096394.40551072,1614956.71742022],[12096396.90585065,1614950.53075712],[12096401.57356115,1614952.5122246]]},"properties":{"color":"#fffc82","landType":"LUA"},"id":"58b288fe-e6aa-4152-b67d-80f87a570ee9"},{"type":"Feature","geometry":{"type":"LineString","coordinates":[[12096401.53122516,1614953.91009962],[12096399.37213995,1614960.79357672],[12096399.50416912,1614966.89102212],[12096403.80117397,1614966.42506351],[12096404.18218815,1614960.79120258],[12096405.99756912,1614956.68467007]]},"properties":{"color":"#fffc82","landType":"LUA"},"id":"4a537a97-efd8-4273-b650-2e7150b1ebb5"},{"type":"Feature","geometry":{"type":"LineString","coordinates":[[12096392.00305998,1614965.57336452],[12096394.01715335,1614966.50992277],[12096399.50416912,1614966.89102212]]},"properties":{"color":"#fffc82","landType":"LUA"},"id":"3f8174e9-baa5-4b37-bdd4-632ffec059b6"},{"type":"Feature","geometry":{"type":"LineString","coordinates":[[12096390.37938268,1614939.00369171],[12096390.18861566,1614932.29577625],[12096385.8010534,1614932.15943652],[12096384.87730877,1614932.10564947]]},"properties":{"color":"#fffc82","landType":"LUA"},"id":"f03aba76-a483-4831-b53a-a49588bc1c6c"},{"type":"Feature","geometry":{"type":"LineString","coordinates":[[12096377.3772265,1614952.69507105],[12096383.64114734,1614953.65634638],[12096384.00729928,1614945.50886859],[12096383.81635923,1614941.64537703],[12096378.57612348,1614943.06764988],[12096378.14091757,1614944.41111555]]},"properties":{"color":"#fffc82","landType":"LUA"},"id":"19d79521-ad5c-4333-b73c-6dd915c652b7"},{"type":"Feature","geometry":{"type":"LineString","coordinates":[[12096367.96811791,1614951.74556034],[12096367.93631769,1614952.63138648],[12096370.18516306,1614953.50173433],[12096377.3772265,1614952.69507105],[12096376.69833033,1614949.23491093],[12096378.03483994,1614947.55285564],[12096378.14091757,1614944.41111555],[12096372.79460419,1614945.17532231],[12096368.75720071,1614945.00631671]]},"properties":{"color":"#fffc82","landType":"LUA"},"id":"9e70d04a-5cd6-4edd-b7bc-d46694debc79"},{"type":"Feature","geometry":{"type":"LineString","coordinates":[[12096367.93631769,1614952.63138648],[12096367.043416,1614953.84468008],[12096367.74707445,1614958.77803219],[12096374.71869736,1614959.37834715]]},"properties":{"color":"#fffc82","landType":"LUA"},"id":"d1023acf-d7bb-4641-b1f3-e8f87dc5e2b5"},{"type":"Feature","geometry":{"type":"LineString","coordinates":[[12096367.16334312,1614960.9304276],[12096367.39581177,1614967.18698848],[12096369.31465818,1614967.3977174],[12096374.38181017,1614966.275606]]},"properties":{"color":"#fffc82","landType":"LUA"},"id":"ed4c9bf6-8abf-445a-81e9-c80565834022"},{"type":"Feature","geometry":{"type":"LineString","coordinates":[[12096389.10153595,1614953.42397932],[12096384.77005207,1614960.5662579],[12096384.33241644,1614961.73579194],[12096383.2181011,1614963.03226915],[12096383.68455799,1614964.43246443],[12096385.44673374,1614965.57336452],[12096392.00305998,1614965.57336452],[12096394.84605565,1614959.28444549]]},"properties":{"color":"#fffc82","landType":"LUA"},"id":"d4e7829b-c02e-454e-bac1-e2aa8c6ce561"},{"type":"Feature","geometry":{"type":"LineString","coordinates":[[12096376.89550013,1614958.7041794],[12096377.3772265,1614952.69507105]]},"properties":{"color":"#fffc82","landType":"LUA"},"id":"60c2a0d3-8f4f-4ae3-bfcf-0ea5fdc34883"},{"type":"Feature","geometry":{"type":"LineString","coordinates":[[12096385.44673374,1614965.57336452],[12096374.38181017,1614966.275606],[12096374.71869736,1614959.37834715],[12096376.89550013,1614958.7041794],[12096380.16070826,1614960.51924749],[12096384.77005207,1614960.5662579]]},"properties":{"color":"#fffc82","landType":"LUA"},"id":"146d2a44-02a9-4e48-9bf2-29dae93408e5"},{"type":"Feature","geometry":{"type":"LineString","coordinates":[[12096383.75077371,1614951.21698085],[12096389.10153595,1614953.42397932]]},"properties":{"color":"#fffc82","landType":"LUA"},"id":"42379993-c20b-4686-a046-40fab32a13d3"},{"type":"Feature","geometry":{"type":"LineString","coordinates":[[12096359.82457978,1614930.70391546],[12096358.63745422,1614930.09630434]]},"properties":{"color":"#fffc82","landType":"LUA"},"id":"195f9d23-fbe6-494e-a563-25dcc97c796f"},{"type":"Feature","geometry":{"type":"LineString","coordinates":[[12096353.83852678,1614941.77953807],[12096356.48150133,1614936.49365626],[12096357.91512932,1614933.21313156],[12096359.82457978,1614930.70391546],[12096364.11447907,1614933.26408031],[12096364.46589369,1614940.30171635],[12096365.18762074,1614942.37188123],[12096364.70142408,1614943.76336007],[12096359.380353,1614943.61943925]]},"properties":{"color":"#fffc82","landType":"LUA"},"id":"19b2f0e6-8519-46ec-820f-26de96753440"},{"type":"Feature","geometry":{"type":"LineString","coordinates":[[12096351.80948223,1614946.66479131],[12096353.00516147,1614948.3941469],[12096356.51432845,1614951.14928179],[12096359.59593855,1614950.41332156],[12096359.29158271,1614946.75889894],[12096359.380353,1614943.61943925],[12096353.83852678,1614941.77953807],[12096351.80948223,1614946.66479131]]},"properties":{"color":"#fffc82","landType":"LUA"},"id":"7bde2676-168d-41bc-8ca0-540c139ef6a0"},{"type":"Feature","geometry":{"type":"LineString","coordinates":[[12096362.29449232,1614966.76553154],[12096359.25241956,1614966.92943171],[12096357.49737809,1614965.87578892],[12096357.70171671,1614961.45168792],[12096362.009971,1614960.51827927],[12096362.009971,1614960.51827927]]},"properties":{"color":"#fffc82","landType":"LUA"},"id":"a52dcfb9-119b-4f64-890d-9a144d5ac210"},{"type":"Feature","geometry":{"type":"LineString","coordinates":[[12096357.70171671,1614961.45168792],[12096356.28947685,1614957.76785709],[12096356.51432845,1614951.14928179]]},"properties":{"color":"#fffc82","landType":"LUA"},"id":"4bc3b3d4-8329-495f-ac08-b9f83d68992f"},{"type":"Feature","geometry":{"type":"LineString","coordinates":[[12096359.59593855,1614950.41332156],[12096362.30115873,1614950.85487068],[12096362.77484358,1614948.75294548],[12096362.56889324,1614946.3006979],[12096362.98379454,1614943.71690276]]},"properties":{"color":"#fffc82","landType":"LUA"},"id":"1970d870-ba95-4408-97b0-8af6f0b2d758"},{"type":"Feature","geometry":{"type":"LineString","coordinates":[[12096367.39581177,1614967.18698848],[12096362.29449232,1614966.76553154],[12096362.009971,1614960.51827927],[12096362.85764283,1614960.32165612]]},"properties":{"color":"#fffc82","landType":"LUA"},"id":"247c1075-ab82-494c-9550-18109dd98d98"},{"type":"Feature","geometry":{"type":"LineString","coordinates":[[12096362.30115873,1614950.85487068],[12096362.489839,1614951.86920275],[12096367.96811791,1614951.74556034],[12096368.81251559,1614948.42781396],[12096368.75720071,1614945.00631671],[12096364.89713928,1614943.20322961]]},"properties":{"color":"#fffc82","landType":"LUA"},"id":"4532cba4-3b51-4f46-8906-d5ba5c6721e0"},{"type":"Feature","geometry":{"type":"LineString","coordinates":[[12096362.489839,1614951.86920275],[12096362.3194294,1614952.87591344],[12096362.85764283,1614960.32165612],[12096367.16334312,1614960.9304276],[12096367.74707445,1614958.77803219]]},"properties":{"color":"#fffc82","landType":"LUA"},"id":"7165362f-e05e-496e-beb3-53e201ddc163"},{"type":"Feature","geometry":{"type":"LineString","coordinates":[[12096362.96212444,1614922.15726659],[12096364.76458129,1614916.65331946],[12096361.47477115,1614914.22528291],[12096356.39576902,1614910.40329543],[12096350.83405111,1614906.98030615],[12096347.50418979,1614911.8457383]]},"properties":{"color":"#fffc82","landType":"LUA"},"id":"3e028185-225a-4f0f-991f-05992ed27e75"},{"type":"Feature","geometry":{"type":"LineString","coordinates":[[12096333.35762258,1614908.08287454],[12096327.23391217,1614912.95378803],[12096329.83767149,1614915.5327586],[12096337.72785001,1614920.98017742],[12096343.27294714,1614915.97768328]]},"properties":{"color":"#fffc82","landType":"LUA"},"id":"cd9a9a4b-b613-46c5-9731-fca02506809e"},{"type":"Feature","geometry":{"type":"LineString","coordinates":[[12096344.54979532,1614916.36228776],[12096347.50418979,1614911.8457383],[12096355.06686796,1614916.24599903],[12096362.96212444,1614922.15726659],[12096360.42884754,1614926.8992263]]},"properties":{"color":"#fffc82","landType":"LUA"},"id":"30a422e0-243b-4506-9cb3-3e2f645a0e53"},{"type":"Feature","geometry":{"type":"LineString","coordinates":[[12096337.72785001,1614920.98017742],[12096338.56946826,1614921.611762],[12096335.52015838,1614926.42444319],[12096334.20512862,1614927.60866496],[12096327.4509089,1614922.0360227],[12096321.82258115,1614917.00966119],[12096327.23391217,1614912.95378803]]},"properties":{"color":"#fffc82","landType":"LUA"},"id":"2f0f87c4-d4f0-4694-8ee4-fb9a488dd26a"},{"type":"Feature","geometry":{"type":"LineString","coordinates":[[12096337.1550486,1614928.59832839],[12096341.29506086,1614922.07034506],[12096349.95716019,1614927.70401257],[12096357.31756243,1614932.45189929],[12096353.75691323,1614938.62921295]]},"properties":{"color":"#fffc82","landType":"LUA"},"id":"e58a5f18-c545-47fa-9c4b-63d0ebd581ad"},{"type":"Feature","geometry":{"type":"LineString","coordinates":[[12096325.61667528,1614931.62148307],[12096330.25237341,1614933.71236583],[12096331.39104248,1614933.47221426],[12096334.41141156,1614928.80248624],[12096334.59131551,1614928.2906152],[12096334.20512862,1614927.60866496]]},"properties":{"color":"#fffc82","landType":"LUA"},"id":"d73833cf-141b-4a7b-a207-96923e6522e6"},{"type":"Feature","geometry":{"type":"LineString","coordinates":[[12096357.31756243,1614932.45189929],[12096360.42884754,1614926.8992263],[12096344.54979532,1614916.36228776],[12096341.29506086,1614922.07034506]]},"properties":{"color":"#fffc82","landType":"LUA"},"id":"e408e358-11aa-41a4-bbd0-8d613f853f19"},{"type":"Feature","geometry":{"type":"LineString","coordinates":[[12096321.82258115,1614917.00966119],[12096319.48067313,1614919.79245948],[12096316.97715743,1614925.92996396],[12096325.61667528,1614931.62148307],[12096330.95638042,1614924.92825001]]},"properties":{"color":"#fffc82","landType":"LUA"},"id":"7f40240d-9532-4980-84d5-835b6424a54c"},{"type":"Feature","geometry":{"type":"LineString","coordinates":[[12096333.12649806,1614934.8786942],[12096340.67979719,1614940.35339939],[12096350.70865909,1614945.62867083],[12096353.75691323,1614938.62921295],[12096345.49111763,1614933.7495928],[12096337.1550486,1614928.59832839],[12096333.12649806,1614934.8786942]]},"properties":{"color":"#fffc82","landType":"LUA"},"id":"b4d761da-d68a-4e0d-9525-9fbe87bf0084"},{"type":"Feature","geometry":{"type":"LineString","coordinates":[[12096350.83405111,1614906.98030615],[12096351.77184386,1614903.83679443],[12096355.45510663,1614896.79291678],[12096362.93840219,1614901.47602798],[12096370.6861231,1614907.87892571],[12096369.18320505,1614912.42813197],[12096364.76458129,1614916.65331946]]},"properties":{"color":"#fffc82","landType":"LUA"},"id":"b47f32d0-a40a-4894-aec8-832ffcbd5bc9"},{"type":"Feature","geometry":{"type":"LineString","coordinates":[[12096341.72643703,1614900.1375836],[12096337.7229286,1614904.54965623],[12096346.3758248,1614911.36550646],[12096348.70243745,1614906.29506594]]},"properties":{"color":"#fffc82","landType":"LUA"},"id":"afc66a17-6bf3-42d1-bd2b-9322ef0c3d6d"},{"type":"Feature","geometry":{"type":"LineString","coordinates":[[12096346.3758248,1614911.36550646],[12096343.27294714,1614915.97768328],[12096337.61831919,1614912.5039676],[12096333.35762258,1614908.08287454],[12096337.7229286,1614904.54965623]]},"properties":{"color":"#fffc82","landType":"LUA"},"id":"941ae13f-37dc-48c8-be31-2dba3b974708"},{"type":"Feature","geometry":{"type":"LineString","coordinates":[[12096374.44227442,1614886.75860801],[12096374.33887961,1614890.33896783],[12096374.88386231,1614893.76224965],[12096373.19139957,1614897.5922079]]},"properties":{"color":"#fffc82","landType":"LUA"},"id":"0659dfc3-a124-4f22-bcc9-6fdbd3699cfb"},{"type":"Feature","geometry":{"type":"LineString","coordinates":[[12096372.94347258,1614898.98657775],[12096376.43648612,1614901.84463258],[12096378.94567371,1614898.70914847],[12096381.22839822,1614891.21552912]]},"properties":{"color":"#fffc82","landType":"LUA"},"id":"fc318f26-ce8f-4118-afd7-ed9c1eb28e46"},{"type":"Feature","geometry":{"type":"LineString","coordinates":[[12096380.11647649,1614916.56242548],[12096383.84007915,1614919.13714942],[12096384.52964793,1614924.09241965],[12096381.84951992,1614929.89619717]]},"properties":{"color":"#fffc82","landType":"LUA"},"id":"670f0dd7-8630-4194-85eb-2105ed8edf98"},{"type":"Feature","geometry":{"type":"LineString","coordinates":[[12096377.71008365,1614928.89893386],[12096380.11647649,1614916.56242548],[12096377.14989548,1614913.71092613],[12096372.47886942,1614914.63988397]]},"properties":{"color":"#fffc82","landType":"LUA"},"id":"9b56e106-e7fe-45cc-9b21-53d0a575a540"},{"type":"Feature","geometry":{"type":"LineString","coordinates":[[12096372.68553747,1614913.22156955],[12096371.85358382,1614918.93107258],[12096370.0536543,1614927.1643879],[12096370.89846657,1614927.9824263],[12096370.3764452,1614937.23127519],[12096371.63003472,1614941.21239496],[12096373.81019112,1614942.27584529],[12096378.19775754,1614938.89461951],[12096384.41120203,1614938.45833278],[12096390.37938268,1614939.00369171],[12096390.51564245,1614940.31255293],[12096387.59967994,1614942.90300785],[12096383.81635923,1614941.64537703]]},"properties":{"color":"#fffc82","landType":"LUA"},"id":"2e1320f8-455f-491d-8ad3-734a907cf898"},{"type":"Feature","geometry":{"type":"LineString","coordinates":[[12096384.52964793,1614924.09241965],[12096390.51636646,1614925.22146814],[12096392.20894718,1614930.49036368],[12096390.18861566,1614932.29577625]]},"properties":{"color":"#fffc82","landType":"LUA"},"id":"3f91a74c-23ab-4bf3-9561-1780f052eb39"},{"type":"Feature","geometry":{"type":"LineString","coordinates":[[12096377.13493088,1614929.02362372],[12096378.77004818,1614928.66913958],[12096381.84951992,1614929.89619717],[12096384.87730877,1614932.10564947],[12096384.41120203,1614938.45833278]]},"properties":{"color":"#fffc82","landType":"LUA"},"id":"538a6217-7d3f-4fed-9887-fa19454ca6a2"},{"type":"Feature","geometry":{"type":"LineString","coordinates":[[12096378.19775754,1614938.89461951],[12096377.13493088,1614934.6135517],[12096377.13493088,1614929.02362372],[12096372.47484698,1614928.86001437],[12096370.89846657,1614927.9824263]]},"properties":{"color":"#fffc82","landType":"LUA"},"id":"c1883bad-5044-4e0b-a3f0-0fa43386e27e"},{"type":"Feature","geometry":{"type":"LineString","coordinates":[[12096404.37070303,1614888.99734938],[12096408.96602614,1614888.94754666],[12096412.04598247,1614884.9027304],[12096409.14826869,1614873.4411178]]},"properties":{"color":"#fffc82","landType":"LUA"},"id":"e96b6eb2-1d43-4940-877d-86769d4eb0d3"},{"type":"Feature","geometry":{"type":"LineString","coordinates":[[12096390.51636646,1614925.22146814],[12096392.11491399,1614923.27699468],[12096395.34335504,1614923.27699468],[12096398.50910889,1614924.93920542],[12096400.54647399,1614925.22146814],[12096408.56767044,1614932.77018736],[12096408.36393105,1614934.31478883],[12096405.88774956,1614936.33766847],[12096401.20180958,1614933.65617681],[12096392.20894718,1614930.49036368]]},"properties":{"color":"#fffc82","landType":"LUA"},"id":"c74af267-9c2e-4fad-9d87-62d47840eeff"},{"type":"Feature","geometry":{"type":"LineString","coordinates":[[12096390.37938268,1614939.00369171],[12096393.77673904,1614937.56872687],[12096396.5178607,1614938.27544261],[12096400.25116628,1614940.90038637],[12096402.79764591,1614934.56938138]]},"properties":{"color":"#fffc82","landType":"LUA"},"id":"ae63b2b1-86fa-43c8-beca-c05a28c070aa"},{"type":"Feature","geometry":{"type":"LineString","coordinates":[[12096400.25116628,1614940.90038637],[12096400.47935998,1614943.80316542],[12096401.9187512,1614946.47183662],[12096404.12017078,1614948.39921029],[12096406.95661885,1614948.54746996],[12096411.57113633,1614941.81225253],[12096409.83539806,1614939.03768128],[12096405.88774956,1614936.33766847]]},"properties":{"color":"#fffc82","landType":"LUA"},"id":"4ae5a29f-90ad-46fe-b568-36fef41baa8f"},{"type":"Feature","geometry":{"type":"LineString","coordinates":[[12096396.90585065,1614950.53075712],[12096398.12028667,1614945.77513494],[12096400.25116628,1614940.90038637]]},"properties":{"color":"#fffc82","landType":"LUA"},"id":"9fd022af-f4e5-44c7-b3e4-b7d8cfc092bc"},{"type":"Feature","geometry":{"type":"LineString","coordinates":[[12096390.51564245,1614940.31255293],[12096390.73470045,1614945.07503705],[12096391.58987438,1614948.6792431],[12096396.90585065,1614950.53075712]]},"properties":{"color":"#fffc82","landType":"LUA"},"id":"b86f7c7f-cea7-4f3f-ba9e-ba56c90ec27c"},{"type":"Feature","geometry":{"type":"LineString","coordinates":[[12096391.58987438,1614948.6792431],[12096389.10153595,1614953.42397932],[12096389.72348045,1614955.47241321],[12096394.40551072,1614956.71742022]]},"properties":{"color":"#fffc82","landType":"LUA"},"id":"28abbabd-ed68-47cc-b745-9e7d003a13f0"},{"type":"Feature","geometry":{"type":"LineString","coordinates":[[12096408.90774405,1614952.87677009],[12096406.90777262,1614954.65139716],[12096405.99756912,1614956.68467007],[12096401.53122516,1614953.91009962],[12096401.57356115,1614952.5122246],[12096403.62680882,1614949.97063306],[12096404.12017078,1614948.39921029]]},"properties":{"color":"#fffc82","landType":"LUA"},"id":"f461f798-39a1-4035-bd4e-000438b5ee1b"},{"type":"Feature","geometry":{"type":"LineString","coordinates":[[12096406.95661885,1614948.54746996],[12096406.94206705,1614950.72502222],[12096408.90774405,1614952.87677009],[12096411.54544756,1614950.79226584],[12096413.56162508,1614947.44826001],[12096412.90640027,1614943.38011375],[12096411.57113633,1614941.81225253]]},"properties":{"color":"#fffc82","landType":"LUA"},"id":"22d52a7a-5774-4c13-bcda-b01c39808c7d"},{"type":"Feature","geometry":{"type":"LineString","coordinates":[[12096379.8647446,1614858.9791539],[12096373.27322796,1614859.42665047],[12096371.26906172,1614860.65380032],[12096369.93942214,1614856.28995465],[12096370.84795493,1614854.84614461],[12096379.51808372,1614851.71978817]]},"properties":{"color":"#fffc82","landType":"LUA"},"id":"fbf6f6dd-a13f-4df8-b23a-612397248802"},{"type":"Feature","geometry":{"type":"LineString","coordinates":[[12096385.06465214,1614858.70661881],[12096390.66074274,1614860.11885069],[12096391.05692768,1614853.40455561],[12096384.79227641,1614851.71978817]]},"properties":{"color":"#fffc82","landType":"LUA"},"id":"d1def802-03d8-4899-af7b-5d6e817adc60"},{"type":"Feature","geometry":{"type":"LineString","coordinates":[[12096379.51808372,1614851.71978817],[12096379.8647446,1614858.9791539],[12096385.06465214,1614858.70661881],[12096384.79227641,1614851.71978817],[12096379.51808372,1614851.71978817]]},"properties":{"color":"#fffc82","landType":"LUA"},"id":"6c69927b-2efb-420f-85df-e4996ce37108"},{"type":"Feature","geometry":{"type":"LineString","coordinates":[[12096382.43660451,1614866.24411746],[12096384.55194945,1614869.95234371],[12096388.33106994,1614871.55009254],[12096390.88596845,1614868.27470764],[12096390.22503481,1614866.38569682],[12096390.07154517,1614859.97016053]]},"properties":{"color":"#fffc82","landType":"LUA"},"id":"afe95a33-efae-4b07-8378-e730e6cb4651"},{"type":"Feature","geometry":{"type":"LineString","coordinates":[[12096371.26906172,1614860.65380032],[12096371.535365,1614862.92091759],[12096374.24889883,1614865.40978249],[12096382.43660451,1614866.24411746],[12096381.47183156,1614858.89492402]]},"properties":{"color":"#fffc82","landType":"LUA"},"id":"07743468-c4c9-4676-b5e2-64ed6b9605f4"},{"type":"Feature","geometry":{"type":"LineString","coordinates":[[12096367.67799068,1614871.75959997],[12096362.56121694,1614868.57867417],[12096365.3981579,1614864.56437985],[12096371.26906172,1614860.65380032]]},"properties":{"color":"#fffc82","landType":"LUA"},"id":"d945baa0-37d2-405a-ab20-3eead3f2cd2b"},{"type":"Feature","geometry":{"type":"LineString","coordinates":[[12096373.6680611,1614864.87703563],[12096367.67799068,1614871.75959997],[12096375.7013334,1614877.87909496],[12096378.45651855,1614880.84795938],[12096381.11285751,1614881.11730695]]},"properties":{"color":"#fffc82","landType":"LUA"},"id":"e9efd1bb-0441-4972-bb82-b5a6fd78499b"},{"type":"Feature","geometry":{"type":"LineString","coordinates":[[12096382.62631945,1614873.64473114],[12096381.60913013,1614872.00028265],[12096380.49458638,1614869.0392423],[12096378.19773274,1614865.81217241]]},"properties":{"color":"#fffc82","landType":"LUA"},"id":"18c96718-8e23-40ae-9e01-e80c6444754c"},{"type":"Feature","geometry":{"type":"LineString","coordinates":[[12096385.76357057,1614889.13567737],[12096383.24131913,1614892.39907285],[12096380.8928537,1614891.01823791],[12096381.40338843,1614884.7753082],[12096381.11285751,1614881.11730695],[12096382.62631945,1614873.64473114],[12096384.55194945,1614869.95234371]]},"properties":{"color":"#fffc82","landType":"LUA"},"id":"d8575b00-9e36-4a1b-8957-43653b8179f8"},{"type":"Feature","geometry":{"type":"Polygon","coordinates":[[[12093831.20084991,1618165.62426956],[12097228.92024363,1617618.01873512],[12098984.78777942,1615975.20517817],[12099258.87323915,1615228.62451903],[12099468.96554725,1614428.18763934],[12099514.23405121,1610486.68741611],[12101509.51221389,1606020.4030545],[12098958.84779915,1603941.62592771],[12095071.14089599,1608798.96735315],[12093831.20084991,1618165.62426956]]]},"properties":{"color":"#c8c8c8","":"","note":"Tổ 9"},"id":"7eedfa18-38ae-405d-9536-b144b2a927c6"},{"type":"Feature","geometry":{"type":"Polygon","coordinates":[[[12093769.29682729,1622042.29968146],[12094206.67018272,1620021.47504355],[12096547.90881826,1619545.22967166],[12098850.55522529,1618850.16929655],[12099815.35112364,1618515.51016098],[12101083.70046599,1616565.22780723],[12102889.83424935,1615966.95447024],[12104137.63753343,1614988.72064049],[12104406.36961768,1612926.00279141],[12105231.07288489,1609930.22315146],[12106903.38479393,1610136.1668572],[12108099.73210047,1611088.65760098],[12107533.71929192,1613469.88446044],[12104819.42604607,1616829.34416763],[12101619.52357562,1624130.69961316],[12093769.29682729,1622042.29968146]]]},"properties":{"color":"#c8c8c8","note":"Tổ 8"},"id":"b6c96afa-3c3f-4af5-bb24-aa2546513e21"},{"type":"Feature","geometry":{"type":"LineString","coordinates":[[12096362.56121694,1614868.57867417],[12096357.328954,1614877.05516883],[12096371.68708927,1614885.78918161],[12096374.44227442,1614886.75860801],[12096378.45651855,1614880.84795938]]},"properties":{"color":"#fffc82","landType":"LUA"},"id":"0a363ba3-de26-4e38-bf54-1915b63c84ff"},{"type":"Feature","geometry":{"type":"LineString","coordinates":[[12096353.82483761,1614882.44960035],[12096357.328954,1614877.05516883]]},"properties":{"color":"#fffc82","landType":"LUA"},"id":"2f7e860c-987f-4845-a4e1-969132f07d8d"},{"type":"Feature","geometry":{"type":"LineString","coordinates":[[12096370.6861231,1614907.87892571],[12096371.81186115,1614905.3508903],[12096373.19139957,1614897.5922079],[12096367.89712441,1614892.41032518],[12096361.4643297,1614888.266582],[12096353.82483761,1614882.44960035],[12096348.01126816,1614891.22757226],[12096347.75434131,1614893.67013431],[12096351.12285252,1614895.42800849],[12096355.26871723,1614897.14936818]]},"properties":{"color":"#fffc82","landType":"LUA"},"id":"d8793ee6-9165-4e78-b2da-cb51b62a9365"},{"type":"Feature","geometry":{"type":"LineString","coordinates":[[12096344.42882268,1614892.62248743],[12096341.72643703,1614900.1375836],[12096348.70243745,1614906.29506594],[12096351.77184386,1614903.83679443]]},"properties":{"color":"#fffc82","landType":"LUA"},"id":"baba9a59-f36f-4b11-b407-780ef043be9a"},{"type":"Feature","geometry":{"type":"LineString","coordinates":[[12096369.18320505,1614912.42813197],[12096372.68553747,1614913.22156955],[12096382.1716549,1614904.25683828]]},"properties":{"color":"#fffc82","landType":"LUA"},"id":"bdf4ec41-39cc-414f-9e07-095ce28aae3c"},{"type":"Feature","geometry":{"type":"Polygon","coordinates":[[[12102742.80335362,1607456.44083234],[12104466.5712402,1600917.72007368],[12108007.73668273,1604454.1565705],[12102742.80335362,1607456.44083234]]]},"properties":{"color":"#c8c8c8","note":"Tổ 8"},"id":"c871c5c7-dd12-4c45-a028-dd1202ef0233"},{"type":"Feature","geometry":{"type":"Polygon","coordinates":[[[12098372.87840793,1618146.76032624],[12098984.78777942,1615975.20517817],[12099468.96554725,1614428.18763934],[12099800.52141027,1611327.46480797],[12102740.78616897,1610094.5498239],[12104363.88024068,1611429.49889199],[12104406.36961768,1612926.00279141],[12103862.50611075,1614890.16361205],[12101083.70046599,1616565.22780723],[12099554.08289401,1618418.85164944],[12098372.87840793,1618146.76032624]]]},"properties":{"color":"#c8c8c8","note":"Tổ 7"},"id":"f7a4b322-9bb1-4ac1-b338-ee68fc88b19d"},{"type":"Feature","geometry":{"type":"LineString","coordinates":[[12096395.64490382,1614889.84009502],[12096404.37070303,1614888.99734938],[12096402.24588187,1614881.67059331],[12096402.17463864,1614874.61025462],[12096403.29092231,1614864.17267831],[12096401.17537493,1614861.36444539]]},"properties":{"color":"#fffc82","landType":"LUA"},"id":"9040e842-7615-4e80-8dbc-ccd7af5f3fab"},{"type":"Feature","geometry":{"type":"LineString","coordinates":[[12096397.08578253,1614860.3908642],[12096401.17537493,1614861.36444539],[12096401.81917451,1614859.23371024],[12096397.80781613,1614854.92268682],[12096396.07056287,1614855.88163254]]},"properties":{"color":"#fffc82","landType":"LUA"},"id":"cb5624ab-c282-483c-ad1b-04a0a826a213"},{"type":"Feature","geometry":{"type":"LineString","coordinates":[[12096390.66074274,1614860.11885069],[12096394.33726035,1614862.02607946],[12096397.08578253,1614860.3908642],[12096396.07056287,1614855.88163254],[12096394.13916788,1614853.20582532],[12096392.00968231,1614852.66075325],[12096391.05692768,1614853.40455561]]},"properties":{"color":"#fffc82","landType":"LUA"},"id":"42ba2236-63b6-4ba5-b154-e24b34e3c351"},{"type":"Feature","geometry":{"type":"LineString","coordinates":[[12096390.44793837,1614889.98788066],[12096395.64490382,1614889.84009502],[12096397.19346672,1614879.9962847],[12096398.2203355,1614868.23561219],[12096398.00740886,1614864.48059172],[12096396.04816923,1614861.00818544]]},"properties":{"color":"#fffc82","landType":"LUA"},"id":"cbab59f2-2dac-4c0f-a17a-5fe2efb67ec9"},{"type":"Feature","geometry":{"type":"LineString","coordinates":[[12096402.36986991,1614872.78478553],[12096409.14826869,1614873.4411178],[12096407.50195563,1614868.65173409],[12096405.06149309,1614863.60783868],[12096403.29092231,1614864.17267831]]},"properties":{"color":"#fffc82","landType":"LUA"},"id":"fa2fd483-7a1a-45ca-9193-3f8356235d40"},{"type":"Feature","geometry":{"type":"LineString","coordinates":[[12096390.88596845,1614868.27470764],[12096392.66410578,1614868.83555752],[12096394.20769033,1614868.7956139],[12096394.33726035,1614862.02607946]]},"properties":{"color":"#fffc82","landType":"LUA"},"id":"6c113595-aa30-4273-82ef-423342555854"},{"type":"Feature","geometry":{"type":"LineString","coordinates":[[12096388.33106994,1614871.55009254],[12096386.29588514,1614883.01046767],[12096385.39094997,1614885.67360232],[12096385.76357057,1614889.13567737],[12096390.44793837,1614889.98788066],[12096394.12639415,1614872.95946327],[12096394.20769033,1614868.7956139]]},"properties":{"color":"#fffc82","landType":"LUA"},"id":"0914cdfa-3f2d-4b2c-9f2a-a8a8705ae290"}]}