{"type":"FeatureCollection","features":[{"type":"Feature","geometry":{"type":"LineString","coordinates":[[12126377.97580541,1538040.66537398],[12126428.25792165,1538052.42490117],[12126414.06538884,1538028.70309633],[12126386.18719939,1538023.93846031],[12126378.07718064,1538032.25122953],[12126381.82806432,1538035.40623743]]},"properties":{"color":"#ffaa32","strokeColor":"#ffaa32","stroke":"#ffaa32","fill":"#ffaa32","landType":"DGT","Layer":"DGT","OGR_STYLE":"PEN(c:#FFAA32,w:2px)","name":"Đường a697"}},{"type":"Feature","geometry":{"type":"LineString","coordinates":[[12126378.31967177,1538039.19504887],[12126425.20914913,1538050.19878096],[12126413.12625687,1538030.07448489],[12126386.71435131,1538025.56045012],[12126380.29323667,1538032.14209263],[12126382.80005464,1538034.25067055]]},"properties":{"color":"#ffaa32","strokeColor":"#ffaa32","stroke":"#ffaa32","fill":"#ffaa32","landType":"DGT","Layer":"DGT","OGR_STYLE":"PEN(c:#FFAA32,w:2px)","name":"Đường 1d93"}},{"type":"Feature","geometry":{"type":"LineString","coordinates":[[12126387.75863253,1538037.6807765],[12126398.90256092,1538037.60031492],[12126400.7129464,1538041.58316297]]},"properties":{"color":"#ffaa32","strokeColor":"#ffaa32","stroke":"#ffaa32","fill":"#ffaa32","landType":"DGT","Layer":"DGT","OGR_STYLE":"PEN(c:#FFAA32,w:2px)","name":"Đường c206"}},{"type":"Feature","geometry":{"type":"LineString","coordinates":[[12126387.74773028,1538036.17081586],[12126399.87167153,1538036.08327837],[12126402.08759978,1538040.95832053]]},"properties":{"color":"#ffaa32","strokeColor":"#ffaa32","stroke":"#ffaa32","fill":"#ffaa32","landType":"DGT","Layer":"DGT","OGR_STYLE":"PEN(c:#FFAA32,w:2px)","name":"Đường 9f5a"}}]}